{"type":"FeatureCollection","features":[{"type":"Feature","properties":{"codigo":"231","nombre":"Pastos limpios"},"geometry":{"type":"Polygon","coordinates":[[[-75.6671434693973,4.98634276908279],[-75.667073734429,4.9861044655429],[-75.667028963356,4.98596865129805],[-75.6669897988302,4.98583850007127],[-75.6669787646772,4.9856461375984],[-75.6670015462159,4.9853180275302],[-75.6670357408023,4.98480323015302],[-75.66704352928194,4.984559930196726],[-75.66674391497456,4.984369144206992],[-75.66619410020661,4.9844156548966],[-75.6656443770668,4.984554072772745],[-75.66561342920694,4.984548931468811],[-75.66529338911562,4.984729899972862],[-75.66496445929624,4.984915895178708],[-75.6646355492398,4.985122519069139],[-75.66430667960755,4.9853703994591525],[-75.66404468554886,4.985556267036696],[-75.6642519499161,4.98561058913189],[-75.6644562385213,4.98567221921551],[-75.6648307796187,4.98582054358412],[-75.6649928283989,4.98588472097988],[-75.6656619492917,4.98622144483871],[-75.6660216889147,4.98637849251801],[-75.6661589072672,4.98640626691555],[-75.6662961557372,4.98640637473921],[-75.6663784827684,4.98642795694658],[-75.6664363860197,4.98647411076826],[-75.6665491179206,4.98659100796322],[-75.6667990480169,4.98675719789707],[-75.6670276734823,4.98687726362049],[-75.6670558433985,4.98688731112348],[-75.6670973173687,4.98667115819573],[-75.667143339655,4.98647106037484],[-75.6671434693973,4.98634276908279]]]}},{"type":"Feature","properties":{"codigo":"242","nombre":"Mosaico de pastos y cultivos"},"geometry":{"type":"Polygon","coordinates":[[[-75.66307413675332,4.9796459675253795],[-75.6630242268006,4.97963156080256],[-75.662842500593,4.97954178708481],[-75.6627414802165,4.97945927307467],[-75.6627001016786,4.97942547425981],[-75.662696594437,4.97946638748401],[-75.6625793862784,4.97945429550763],[-75.6625729433868,4.97950809387143],[-75.6625684808399,4.97954712109403],[-75.662552741572,4.97968477246883],[-75.6625453206747,4.97971151301767],[-75.6625340444327,4.97975214650879],[-75.6625206915421,4.97980025997844],[-75.6625100175833,4.97983872148097],[-75.6624813126619,4.97989858322275],[-75.6624422574044,4.9799800307701],[-75.6623870619182,4.98007591527297],[-75.6623508545374,4.98010284160762],[-75.6622717586065,4.98016166199356],[-75.6621213225998,4.98032058645427],[-75.6621176897151,4.980327217161467],[-75.66261567295041,4.980099601554024],[-75.6630276978319,4.979731555875898],[-75.66307413675332,4.9796459675253795]]]}},{"type":"Feature","properties":{"codigo":"222","nombre":"Cultivos permanentes arbustivos"},"geometry":{"type":"Polygon","coordinates":[[[-75.6670644599086,4.98415265289602],[-75.6670457719547,4.98389758520417],[-75.66701839891,4.98364701261557],[-75.6669358458994,4.98332958642113],[-75.6668477099733,4.98306783551188],[-75.666820146939,4.98300657008756],[-75.6667209452681,4.98276151255356],[-75.6666493005266,4.98258329141335],[-75.6665444768863,4.98243288459894],[-75.6663514032571,4.98213208246471],[-75.6662410641372,4.98197053713006],[-75.6660312827113,4.9818033487781],[-75.6658822022807,4.9817085884849],[-75.6655729097294,4.98160257463704],[-75.6651579395444,4.9814370882026],[-75.6650525822165,4.98139507308377],[-75.6649090362217,4.98128918612592],[-75.6648483411791,4.98120562680332],[-75.6647932417573,4.9810496946266],[-75.6647160412885,4.98089374559118],[-75.6646056248315,4.98080458472777],[-75.6644785829629,4.98077108979038],[-75.6643792169399,4.98068193882738],[-75.6642799520634,4.98048700164192],[-75.6641805864102,4.98039785064772],[-75.6641199250554,4.98027532213473],[-75.6640648120555,4.98013052672846],[-75.6639678011999,4.979932346899],[-75.6638634490272,4.97983482496685],[-75.663735851147,4.97977626812402],[-75.6635308563792,4.97975273871789],[-75.6633529301153,4.97973702598943],[-75.6631325091387,4.97966281696583],[-75.66307413675332,4.9796459675253795],[-75.6630276978319,4.979731555875898],[-75.66261567295041,4.980099601554024],[-75.6621176897151,4.980327217161467],[-75.6620535802278,4.9804442291983],[-75.661950258116,4.98055166662376],[-75.6617321773872,4.98073074442524],[-75.6616710778727,4.98078898527202],[-75.6616182067844,4.98083938290717],[-75.6615892778476,4.9808669594705],[-75.6615215029675,4.98103098674709],[-75.6615163912877,4.98114457309055],[-75.6615288401699,4.98122787706436],[-75.6615638228854,4.98132634216551],[-75.6616063000935,4.98144248176302],[-75.6616125369732,4.981453893163],[-75.661719157697,4.98164900154677],[-75.6617490102121,4.98170362972577],[-75.6617848419589,4.98181227600494],[-75.6617787866718,4.98188870842281],[-75.6617387906228,4.98197115821533],[-75.6616914703485,4.98203639763814],[-75.6616848297857,4.98204554927586],[-75.6615130188638,4.98221440787401],[-75.6613292680657,4.98234302956637],[-75.6612048023763,4.98243032650911],[-75.6609691975886,4.9825106400044],[-75.6606537017563,4.98265125616011],[-75.6605915396547,4.98268252615073],[-75.6605495477476,4.9827036497335],[-75.6605059302795,4.98272559140551],[-75.6603920654473,4.9828321351123],[-75.6603420955926,4.98291256445642],[-75.6602925681074,4.98301370870966],[-75.6602954917048,4.98301358302253],[-75.6603016916832,4.98302304770082],[-75.6603484820189,4.98309448031445],[-75.6603600975627,4.98311354873923],[-75.660362375919,4.98311695427645],[-75.6608311778214,4.98390674052386],[-75.6612156447545,4.98455559012438],[-75.6615540940587,4.98514220449503],[-75.6617229629845,4.98543490282343],[-75.6624105695082,4.98657828110223],[-75.6625503510803,4.98684449839507],[-75.6626158060165,4.98672610305495],[-75.662696975109,4.98658700600277],[-75.6628292468161,4.98636626783314],[-75.6629825044395,4.9861727697216],[-75.6633069494497,4.98587956570812],[-75.663812873723,4.98548423898075],[-75.6640049642488,4.98554585644721],[-75.66404468554886,4.985556267036696],[-75.66430667960755,4.9853703994591525],[-75.6646355492398,4.985122519069139],[-75.66496445929624,4.984915895178708],[-75.66529338911562,4.984729899972862],[-75.66561342920694,4.984548931468811],[-75.6656443770668,4.984554072772745],[-75.66619410020661,4.9844156548966],[-75.66674391497456,4.984369144206992],[-75.66704352928194,4.984559930196726],[-75.6670473311141,4.98444116688967],[-75.6670644599086,4.98415265289602]]]}}]}