{"type":"FeatureCollection","features":[{"type":"Feature","properties":{"CODIGO":"170010002000000310196000000000","VEREDA_COD":"17001000200000031","NUMERO_SUB":0,"CODIGO_ANT":"17001000200310196000","USUARIO_LO":"","FECHA_LOG":null,"GLOBALID_S":"","SHAPE_Leng":0.04177392721,"SHAPE_Area":3.06191e-05,"codigo_mun":"","Area":null},"geometry":{"type":"Polygon","coordinates":[[[-75.57735697399994,5.050912743000026],[-75.57739548199999,5.050651749000053],[-75.57740064699993,5.050468151000075],[-75.57737964399996,5.0501055010000755],[-75.57724280099995,5.04971280500007],[-75.57729123099995,5.049599923000073],[-75.57740231499997,5.049337348000051],[-75.57731347899994,5.049353930000052],[-75.57715698299995,5.049305962000062],[-75.57706350199999,5.0492849900000465],[-75.57698717299996,5.049261453000042],[-75.57690218499994,5.0492243910000525],[-75.57656671199999,5.049116408000032],[-75.57635202399996,5.0490926840000725],[-75.57618758499996,5.049076346000049],[-75.57609365299999,5.0490674580000245],[-75.57601520499998,5.049060036000071],[-75.57590547199999,5.049081513000033],[-75.57576674299997,5.049104026000066],[-75.57568181299996,5.0491306310000255],[-75.57567829399994,5.049118487000044],[-75.57567719199994,5.049114684000074],[-75.57567662299994,5.049112725000043],[-75.57567602199998,5.0491106500000456],[-75.57567479499994,5.049106416000029],[-75.57573116799995,5.048766084000022],[-75.57571333599998,5.048642315000052],[-75.57567453399997,5.048372979000021],[-75.57567453399997,5.048372626000059],[-75.57565050899996,5.048099701000069],[-75.57564258599996,5.048009715000035],[-75.57564801799998,5.047970712000051],[-75.57567003399998,5.04781259300006],[-75.57567125299994,5.047803850000037],[-75.57568374599998,5.047714124000038],[-75.57571209399998,5.047485499000061],[-75.57574681699998,5.047428283000045],[-75.57577859099996,5.047369371000059],[-75.57580733199995,5.04730891600002],[-75.57583296999996,5.047247070000026],[-75.57583346199993,5.047245689000022],[-75.57585543399995,5.047183996000058],[-75.57587466999996,5.0471198580000305],[-75.57589062199997,5.047054819000039],[-75.57590348399998,5.046995480000021],[-75.57591970499993,5.046936975000051],[-75.57593923099995,5.046879494000052],[-75.57595898599999,5.046830176000071],[-75.57598117299995,5.04678191000005],[-75.57600573999997,5.046734814000047],[-75.57603262299995,5.046689011000069],[-75.57604028799994,5.046676934000061],[-75.57605100299998,5.046663403000025],[-75.57607195199995,5.046636945000046],[-75.57610127899994,5.046599908000076],[-75.57613749999996,5.04655419900007],[-75.57616813399994,5.046514686000023],[-75.57619367199999,5.04648579600007],[-75.57621735299995,5.046458812000026],[-75.57624474799997,5.04642971800007],[-75.57586494499998,5.046332509000024],[-75.57587304099997,5.046281246000035],[-75.57588519399997,5.046230795000042],[-75.57590132799999,5.04618148000003],[-75.57592133699995,5.046133613000052],[-75.57594509799998,5.046087503000024],[-75.57597245499994,5.04604344400002],[-75.57600323399998,5.046001716000035],[-75.57603723699998,5.045962587000076],[-75.57607065799994,5.045929582000042],[-75.57610637699997,5.0458990900000344],[-75.57612131999997,5.0458849170000235],[-75.57613579199995,5.045870262000051],[-75.57613612999995,5.045869909000032],[-75.57613646599998,5.045869554000035],[-75.57613652199996,5.045869496000023],[-75.57613685799998,5.045869142000072],[-75.57613719299997,5.045868790000043],[-75.57613758799994,5.045868374000065],[-75.57613798199998,5.045867957000041],[-75.57613831299994,5.0458676060000585],[-75.57613864199999,5.045867259000033],[-75.57613871999996,5.045867176000058],[-75.57613904299996,5.045866833000048],[-75.57613936499996,5.045866490000037],[-75.57613976999994,5.045866060000037],[-75.57614017299994,5.045865630000037],[-75.57614049099999,5.045865290000052],[-75.57614080699994,5.0458649510000555],[-75.57614246799994,5.045863165000071],[-75.57614412199996,5.045861373000037],[-75.57614439699995,5.045861074000072],[-75.57614467099995,5.0458607760000405],[-75.57614529299997,5.0458600960000695],[-75.57614591299995,5.045859416000042],[-75.57614621899995,5.045859083000039],[-75.57614652199999,5.045858748000057],[-75.57614976699995,5.045855151000069],[-75.57615298299999,5.04585153000005],[-75.57615326699994,5.045851209000034],[-75.57615354899997,5.04585088500005],[-75.57615367199998,5.045850747000031],[-75.57615395899995,5.045850421000068],[-75.57615424499994,5.045850094000059],[-75.57615466199996,5.045849615000066],[-75.57615507999998,5.04584913900004],[-75.57615535599996,5.04584882100005],[-75.57615563099995,5.045848504000048],[-75.57615691999996,5.0458470180000745],[-75.57615820499996,5.04584552700004],[-75.57615848799998,5.045845200000031],[-75.57615876699998,5.0458448710000425],[-75.57615899499996,5.04584460500007],[-75.57615922499997,5.045844338000052],[-75.57615949299998,5.045844023000029],[-75.57615975999994,5.045843710000042],[-75.57615990099998,5.045843544000036],[-75.57616017199996,5.045843226000045],[-75.57616044399998,5.045842907000065],[-75.57616146699996,5.0458417000000395],[-75.57616248699998,5.045840490000046],[-75.57616342099999,5.04583937700005],[-75.57616435199998,5.045838260000039],[-75.57616464299997,5.045837910000046],[-75.57616493399996,5.045837560000052],[-75.57616582899993,5.045836483000073],[-75.57616672099994,5.045835402000023],[-75.57616697599997,5.0458350900000255],[-75.57616723199999,5.045834779000074],[-75.57619561199994,5.045797460000074],[-75.57622114199995,5.045758126000067],[-75.57624368399996,5.045716994000031],[-75.57626310599994,5.045674293000047],[-75.57627930599995,5.0456302620000315],[-75.57628581599994,5.0456102580000675],[-75.57629627999995,5.045592018000036],[-75.57631025499995,5.045576322000045],[-75.57632714699997,5.045563836000042],[-75.57634623299998,5.045555093000075],[-75.57636670199997,5.0455504630000405],[-75.57638768399994,5.045550146000039],[-75.57648295599995,5.045562572000051],[-75.57657775399997,5.04557821700007],[-75.57666994599998,5.045596620000026],[-75.57676147799998,5.045618068000067],[-75.57685225399996,5.045642536000059],[-75.57694217699998,5.045669998000051],[-75.57703114399999,5.045700425000064],[-75.57711906199995,5.045733781000024],[-75.57721770699999,5.045775258000049],[-75.57731472899997,5.045820423000066],[-75.57740998799994,5.045869215000039],[-75.57750335099996,5.045921562000046],[-75.57750408999993,5.045921994000025],[-75.57750482599994,5.045922426000061],[-75.57753332699997,5.045938712000066],[-75.57756359899997,5.045951388000049],[-75.57759518799998,5.045960262000051],[-75.57762761999999,5.045965202000048],[-75.57766041099995,5.045966136000061],[-75.57769306999995,5.045963046000054],[-75.57774885699996,5.045940176000045],[-75.57780563099999,5.045919888000071],[-75.57786327099996,5.045902227000056],[-75.57792165399997,5.045887229000073],[-75.57798072099996,5.045889430000045],[-75.57803980199998,5.045887608000044],[-75.57809862199997,5.04588177200003],[-75.57815691299999,5.0458719480000696],[-75.57821440199996,5.045858183000064],[-75.57827083299998,5.045840541000075],[-75.57832593699999,5.045819098000038],[-75.57837946499995,5.0457939590000365],[-75.57843116799995,5.045765237000069],[-75.57841328099994,5.045738232000076],[-75.57839284499994,5.045713112000044],[-75.57837005599998,5.04569011600006],[-75.57836750299998,5.0456880010000305],[-75.57834513399996,5.045669467000039],[-75.57831831499993,5.045651362000058],[-75.57824963999997,5.045615560000044],[-75.57793819799997,5.045453206000047],[-75.57800794699995,5.045422444000053],[-75.57813223099998,5.04533453800002],[-75.57824368799999,5.045202516000074],[-75.57832693899996,5.044971865000036],[-75.57835127699997,5.04488787300005],[-75.57844868699993,5.044551686000034],[-75.57845462199998,5.044531210000059],[-75.57850538499997,5.044346128000029],[-75.57852500699994,5.044274593000068],[-75.57854280099997,5.044210967000026],[-75.57861074899995,5.04396799400007],[-75.57864751699998,5.043836530000021],[-75.57871021699998,5.043617353000059],[-75.57873872399995,5.043517705000056],[-75.57876136599998,5.043473594000034],[-75.57879324799995,5.0434114850000356],[-75.57899564199994,5.043077357000072],[-75.57919022699997,5.04277174300006],[-75.57920880099994,5.042739500000039],[-75.57929330499996,5.042592827000021],[-75.57933345399994,5.042523136000057],[-75.57936930999995,5.042460904000052],[-75.57943681599994,5.042320958000062],[-75.57949753799994,5.042195080000056],[-75.57953553299996,5.042116315000044],[-75.57972065099995,5.0419439260000445],[-75.57982332899996,5.041848310000034],[-75.57990576899994,5.0417715380000345],[-75.58003227499995,5.0417208640000695],[-75.58021088299995,5.041696780000052],[-75.58029064799996,5.041716959000041],[-75.58046435899996,5.041760906000036],[-75.58056857899999,5.041823822000026],[-75.58061779399998,5.0418535320000615],[-75.58063825099998,5.041879832000063],[-75.58072544499998,5.0419919300000515],[-75.58074099799995,5.042052553000076],[-75.58076165699998,5.042133091000039],[-75.58076895199997,5.0425163130000215],[-75.58077511899995,5.0425924840000675],[-75.58078561999997,5.042722195000067],[-75.58008837499995,5.042852327000048],[-75.58011845799996,5.043051265000031],[-75.58026074399999,5.043432529000029],[-75.58036632199997,5.043889610000065],[-75.58057739999998,5.043848614000069],[-75.58060880699998,5.043843172000038],[-75.58064062599993,5.04384131300003],[-75.58067245199999,5.0438430620000645],[-75.58070387799995,5.043848396000044],[-75.58073450399996,5.043857246000073],[-75.58076393999994,5.043869502000064],[-75.58079181299996,5.043885006000039],[-75.58081776499995,5.043903559000057],[-75.58084146799996,5.043924926000045],[-75.58086261799997,5.043948837000073],[-75.58094968499995,5.043866069000046],[-75.58098175399994,5.043834703000073],[-75.58101661499995,5.043806491000055],[-75.58105396299999,5.043781681000041],[-75.58109346599997,5.043760494000026],[-75.58113477699999,5.043743115000041],[-75.58117753099998,5.043729696000071],[-75.58122343299993,5.043730061000076],[-75.58126916699996,5.043734006000022],[-75.58131445799995,5.043741511000064],[-75.58135902699996,5.043752527000038],[-75.58140260799996,5.043766988000073],[-75.58144493299994,5.04378480500003],[-75.58148574699999,5.0438058730000535],[-75.58152480299998,5.043830064000076],[-75.58167233899997,5.043609724000021],[-75.58179651099994,5.043686081000033],[-75.58262000999997,5.04421304400006],[-75.58263427799994,5.044229168000072],[-75.58264369599993,5.044239809000032],[-75.58267790799994,5.044278463000069],[-75.58270945199996,5.0443141060000585],[-75.58273553199996,5.044343577000063],[-75.58279369399997,5.044447048000052],[-75.58282458599996,5.044502010000031],[-75.58282610899994,5.0445071910000365],[-75.58276008699994,5.044559694000043],[-75.58272740799998,5.0445943510000575],[-75.58269718199995,5.044628140000043],[-75.58269564699998,5.04462985400005],[-75.58269522999996,5.044630336000068],[-75.58269030999998,5.0446360080000545],[-75.58269026299996,5.044636062000052],[-75.58263443099997,5.044703987000048],[-75.58260013599994,5.044750084000043],[-75.58258195099995,5.044774526000026],[-75.58253293599995,5.044847527000059],[-75.58248749799998,5.044922821000057],[-75.58248939699996,5.044925301000035],[-75.58250348999997,5.04494371800007],[-75.58257760199996,5.04506559500004],[-75.58259302999994,5.045256147000032],[-75.58254850099996,5.045364733000042],[-75.58253138299995,5.04540647500005],[-75.58242303399999,5.045480514000076],[-75.58239565599996,5.0454445480000345],[-75.58236243799996,5.045400914000027],[-75.58225959399994,5.0453907310000545],[-75.58214669299997,5.045422083000062],[-75.58205797699998,5.04551649900003],[-75.58200214299995,5.045600939000053],[-75.58191344399995,5.045683893000046],[-75.58159904999997,5.04575935500003],[-75.58136837399996,5.045882985000048],[-75.58131728599994,5.045910366000044],[-75.58131704799996,5.045911658000023],[-75.58130430099999,5.045980658000076],[-75.58129898799996,5.046009420000075],[-75.58129859799999,5.046011540000052],[-75.58129784199997,5.046015628000021],[-75.58128911699998,5.046077976000049],[-75.58127577399995,5.046173327000076],[-75.58127432899994,5.046183646000031],[-75.58127427599999,5.046184027000038],[-75.58125524999997,5.046319978000042],[-75.58118197299996,5.046603517000051],[-75.58117230399995,5.046630109000034],[-75.58117043199996,5.046635253000034],[-75.58116912499997,5.046638847000054],[-75.58115096499995,5.046688783000036],[-75.58115157899994,5.046797686000048],[-75.58115178999998,5.046835197000064],[-75.58115217499994,5.04690346600006],[-75.58105235699998,5.0471112230000585],[-75.58092957699995,5.047366772000032],[-75.58087029099994,5.047488954000073],[-75.58078157299997,5.047671797000021],[-75.58077821099994,5.047678725000026],[-75.58073199999995,5.04777817400003],[-75.58067082699995,5.047909826000023],[-75.58051976799999,5.048083813000062],[-75.58051320299995,5.048436890000062],[-75.58050046499994,5.0487892990000205],[-75.58053799799995,5.048908977000053],[-75.58050121599996,5.048979892000034],[-75.58054828999997,5.049032981000039],[-75.58056143299996,5.049047805000043],[-75.58053376499998,5.049222223000072],[-75.58052911399994,5.049251543000025],[-75.58054722599996,5.049348412000029],[-75.58055151899998,5.049371373000042],[-75.58059744599996,5.04946721400006],[-75.58062854899998,5.049528513000041],[-75.58063229399994,5.049609315000055],[-75.58063469599995,5.049661137000044],[-75.58063472499998,5.049661767000032],[-75.58063654099993,5.049700929000039],[-75.58063832399995,5.049728338000023],[-75.58062891999998,5.049726430000021],[-75.58061843999997,5.049724304000051],[-75.58061662099993,5.049723934000042],[-75.58050202499999,5.049700684000072],[-75.58032651999997,5.0496355240000526],[-75.58013958799995,5.049558916000024],[-75.58012429199994,5.049552647000041],[-75.57991887099996,5.049485430000061],[-75.57976667399998,5.049465099000031],[-75.57967788299999,5.04948184400007],[-75.57961464699997,5.049549527000067],[-75.57961032499998,5.04955668100007],[-75.57960601499997,5.0495638390000295],[-75.57950689499995,5.049759643000073],[-75.57949567799994,5.049781800000062],[-75.57948576799998,5.049801376000062],[-75.57947352199994,5.049893860000054],[-75.57946911199997,5.049927162000074],[-75.57947941699996,5.050189777000071],[-75.57959341399999,5.050436220000051],[-75.57969075799997,5.05054954600007],[-75.57983825499997,5.050721261000035],[-75.58006118399999,5.051044546000071],[-75.58020794999999,5.0512746540000535],[-75.58015301699999,5.051438646000065],[-75.58007912699998,5.05158448100002],[-75.57986437399995,5.051598811000076],[-75.57939585999998,5.0514753680000695],[-75.57896606799994,5.051268299000071],[-75.57860773999994,5.050923714000021],[-75.57821594499995,5.050732061000076],[-75.57792083799995,5.050602582000067],[-75.57770898899997,5.050569890000077],[-75.57754827899998,5.050640356000031],[-75.57745165399996,5.050768925000057],[-75.57735697399994,5.050912743000026]],[[-75.58012728599994,5.046399854000072],[-75.57986763099996,5.046026052000059],[-75.57942471799998,5.046602612000072],[-75.57962555899996,5.046926516000042],[-75.57956254699997,5.046990482000069],[-75.57956137099995,5.0469916760000615],[-75.57955126999997,5.047001928000043],[-75.57924106399997,5.047393974000045],[-75.57933835299997,5.047630294000044],[-75.57934207199997,5.047639326000024],[-75.57967104299996,5.048438421000071],[-75.57967218799996,5.048441202000049],[-75.57967693399996,5.048435679000022],[-75.57968166499995,5.048430145000054],[-75.57968237199998,5.048429317000057],[-75.57968307699997,5.048428490000049],[-75.57969357699994,5.0484161010000435],[-75.57970401199998,5.04840365900003],[-75.57970456899994,5.048402991000046],[-75.57970512599996,5.048402324000051],[-75.57977351499994,5.048317353000073],[-75.57983894999995,5.0482300760000385],[-75.57990135799997,5.048140597000042],[-75.57996066399994,5.048049019000075],[-75.58001679699998,5.047955456000068],[-75.58006969399997,5.047860012000058],[-75.58017109699995,5.047664046000023],[-75.58027630299995,5.047470107000038],[-75.58038526899998,5.0472782680000705],[-75.58043645099997,5.047199309000064],[-75.58048436499996,5.04711831700007],[-75.58052893099995,5.047035425000047],[-75.58057007199994,5.046950768000045],[-75.58060772099998,5.046864496000069],[-75.58064181599997,5.04677674800007],[-75.58067229599999,5.046687674000054],[-75.58070201499999,5.046602604000043],[-75.58074440399997,5.046509701000048],[-75.58079921099994,5.0464239970000335],[-75.58085753499995,5.046340662000034],[-75.58091927899994,5.046259841000051],[-75.58098433099997,5.0461816740000245],[-75.58105258099994,5.046106300000076],[-75.58112390799994,5.046033846000057],[-75.58119819099994,5.04596444200007],[-75.58121587699998,5.045937871000035],[-75.58046917199994,5.046140395000066],[-75.58019605699997,5.046313330000032],[-75.58012728599994,5.046399854000072]]]}}]}