{
"type": "FeatureCollection",
"name": "Coberturas",
"crs": { "type": "name", "properties": { "name": "urn:ogc:def:crs:OGC:1.3:CRS84" } },
"features": [
{"type":"Feature","properties":{"OBJECTID":2926,"PROYECTO":"Contrato 267 de 2020","ID_COBERT":2926,"CODIGO":1221,"N1_COBERT":1.0,"N2_COBERT":12.0,"N3_COBERT":122.0,"N4_COBERT":1221.0,"N5_COBERT":0.0,"N6_COBERT":0.0,"CODIGO_FIN":"1.2.2.1.","NOMENCLATU":"1.2.2.1. Red vial y territorios asociados","INSUMO":"Imagery © 2019 Planet Labs Inc – r_201912_L15_0593E_1052N","APOYO":"Basemap_ArcGis_20191008","CONFIABILI":"SI","OBSERVACIO":null,"ANO_ESTUDI":"2021","AREA_HA":66.01,"Shape_Leng":56680.730736999998,"Shape_Area":660116.38282499998},"geometry":{"type":"MultiPolygon","coordinates":[[[[-75.578115610727565,5.045346293508914],[-75.578103990570455,5.045361346494442],[-75.578070327945355,5.0453783219941],[-75.578115610727565,5.045346293508914]]],[[[-75.578326938999965,5.044971865000036],[-75.578351276999967,5.04488787300005],[-75.578448686999934,5.044551686000034],[-75.578454621999981,5.044531210000059],[-75.578505384999971,5.044346128000029],[-75.578525006999939,5.044274593000068],[-75.578542800999969,5.044210967000026],[-75.578610748999949,5.04396799400007],[-75.578647516999979,5.043836530000021],[-75.57871021699998,5.043617353000059],[-75.578738723999948,5.043517705000056],[-75.578761365999981,5.043473594000034],[-75.578793247999954,5.043411485000036],[-75.578995641999938,5.043077357000072],[-75.579091880335071,5.042926205664918],[-75.579090630267672,5.042928980418219],[-75.579014833186392,5.043158771909315],[-75.578919910804203,5.043369470316082],[-75.578805907113022,5.043580214668477],[-75.578691903361943,5.043790956325041],[-75.578635187465494,5.044020702861077],[-75.57859755286961,5.044250404382539],[-75.578559918283702,5.044480105009838],[-75.578465038852627,5.0447099389406],[-75.578451478618206,5.044740039244845],[-75.578370118084422,5.044920637457296],[-75.578295929097266,5.045057779464377],[-75.578326938999965,5.044971865000036]]],[[[-75.579905768999936,5.041771538000035],[-75.580032274999951,5.041720864000069],[-75.58021088299995,5.041696780000052],[-75.580290647999959,5.041716959000041],[-75.580464358999961,5.041760906000036],[-75.580568578999987,5.041823822000026],[-75.580617793999977,5.041853532000061],[-75.580638250999982,5.041879832000063],[-75.580725444999985,5.041991930000052],[-75.580740997999953,5.042052553000076],[-75.580761656999982,5.042133091000039],[-75.580768951999971,5.042516313000021],[-75.580775118999952,5.042592484000068],[-75.580785619999972,5.042722195000067],[-75.580716249968546,5.042735142042969],[-75.580712174614703,5.042649762555289],[-75.580730727371588,5.042420103681956],[-75.580730198950661,5.042190490778409],[-75.580691508154672,5.041960965274208],[-75.580519426007186,5.041808288524985],[-75.580290320384691,5.041751414744215],[-75.580061392595283,5.041771078832403],[-75.579871740772859,5.041803226683318],[-75.579905768999936,5.041771538000035]]],[[[-75.581672338999965,5.043609724000021],[-75.581796510999936,5.043686081000033],[-75.581845903858479,5.043717687849488],[-75.581764015557923,5.043680590422082],[-75.581657268338986,5.043632231519817],[-75.581672338999965,5.043609724000021]]],[[[-75.582620009999971,5.04421304400006],[-75.582634277999944,5.044229168000072],[-75.582643695999934,5.044239809000032],[-75.582677907999937,5.044278463000069],[-75.58270945199996,5.044314106000058],[-75.582735531999958,5.044343577000063],[-75.582793693999974,5.044447048000052],[-75.582824585999958,5.044502010000031],[-75.582826108999939,5.044507191000037],[-75.58276008699994,5.044559694000043],[-75.5827551232085,5.044564958240699],[-75.58270053746709,5.044348129368979],[-75.582610489642605,5.044206951854132],[-75.582620009999971,5.04421304400006]]]]}},
{"type":"Feature","properties":{"OBJECTID":3402,"PROYECTO":"Contrato 267 de 2020","ID_COBERT":3402,"CODIGO":112,"N1_COBERT":1.0,"N2_COBERT":11.0,"N3_COBERT":112.0,"N4_COBERT":0.0,"N5_COBERT":0.0,"N6_COBERT":0.0,"CODIGO_FIN":"1.1.2.","NOMENCLATU":"1.1.2. Tejido urbano discontinuo","INSUMO":"RAPIDEYE_1841412_2018-08-11_RE3_3A","APOYO":"Imagenes Bing, Google Earth","CONFIABILI":"SI","OBSERVACIO":null,"ANO_ESTUDI":"2021","AREA_HA":12.2,"Shape_Leng":5143.7056436900002,"Shape_Area":121988.566376},"geometry":{"type":"MultiPolygon","coordinates":[[[[-75.580079126999976,5.05158448100002],[-75.579864373999953,5.051598811000076],[-75.579630570984193,5.051537209114803],[-75.579702173655591,5.051511378939638],[-75.579740336656968,5.051511290406394],[-75.579969224535873,5.05147249018632],[-75.5801434514931,5.051457525221823],[-75.580079126999976,5.05158448100002]]]]}},
{"type":"Feature","properties":{"OBJECTID":3597,"PROYECTO":"Contrato 267 de 2020","ID_COBERT":3597,"CODIGO":142,"N1_COBERT":1.0,"N2_COBERT":14.0,"N3_COBERT":142.0,"N4_COBERT":0.0,"N5_COBERT":0.0,"N6_COBERT":0.0,"CODIGO_FIN":"1.4.2.","NOMENCLATU":"1.4.2. Instalaciones recreativas","INSUMO":"RAPIDEYE_1841412_2018-08-11_RE3_3A","APOYO":"Imagenes Bing, Google Earth","CONFIABILI":"SI","OBSERVACIO":null,"ANO_ESTUDI":"2021","AREA_HA":2.05,"Shape_Leng":670.940534286,"Shape_Area":20500.485253399998},"geometry":{"type":"MultiPolygon","coordinates":[[[[-75.579436815999941,5.042320958000062],[-75.579497537999941,5.042195080000056],[-75.579535532999955,5.042116315000044],[-75.579720650999946,5.041943926000044],[-75.579823328999964,5.041848310000034],[-75.579871740772859,5.041803226683318],[-75.580061392595283,5.041771078832403],[-75.580290320384691,5.041751414744215],[-75.580519426007186,5.041808288524985],[-75.580691508154672,5.041960965274208],[-75.580730198950661,5.042190490778409],[-75.580730727371588,5.042420103681956],[-75.580712174614703,5.042649762555289],[-75.580716249968546,5.042735142042969],[-75.580088374999946,5.042852327000048],[-75.580118457999959,5.043051265000031],[-75.580214837066492,5.04330951857674],[-75.580117638709737,5.043131801946658],[-75.580059866645882,5.042902321381971],[-75.580002096460788,5.042672839878581],[-75.579868044538173,5.042462670297003],[-75.579657886911619,5.04234834784697],[-75.57942895789111,5.042368012736469],[-75.579414101539385,5.042368047116534],[-75.579436815999941,5.042320958000062]]]]}},
{"type":"Feature","properties":{"OBJECTID":3937,"PROYECTO":"Contrato 267 de 2020","ID_COBERT":3937,"CODIGO":2221,"N1_COBERT":2.0,"N2_COBERT":22.0,"N3_COBERT":222.0,"N4_COBERT":2221.0,"N5_COBERT":0.0,"N6_COBERT":0.0,"CODIGO_FIN":"2.2.2.1.","NOMENCLATU":"2.2.2.1. Otros cultivos permanentes arbustivos","INSUMO":"RAPIDEYE_1841412_2018-08-11_RE3_3A","APOYO":"Imagenes Bing, Google Earth","CONFIABILI":"SI","OBSERVACIO":null,"ANO_ESTUDI":"2021","AREA_HA":13.99,"Shape_Leng":3321.3159645199999,"Shape_Area":139905.25733200001},"geometry":{"type":"MultiPolygon","coordinates":[[[[-75.57736146842241,5.049433899169456],[-75.577493342278643,5.049373421144809],[-75.577722186864875,5.049315489311426],[-75.577931863598735,5.049219332546621],[-75.578064991420035,5.04902767898295],[-75.578293879803937,5.048988879743999],[-75.578503554471965,5.04889272199327],[-75.578598477820478,5.048682024099519],[-75.578521625106333,5.048452586687118],[-75.578368577148737,5.048280729507208],[-75.578177456327424,5.048147229621931],[-75.577967298181704,5.04803290742101],[-75.57783328785446,5.047841873110475],[-75.57769927851821,5.047650837823351],[-75.577508114866575,5.047498203040467],[-75.577469423844079,5.047268677862202],[-75.577564347623863,5.047057977348167],[-75.57779327862103,5.04703831496001],[-75.578003393225401,5.047133501970089],[-75.578194513634202,5.047267002080766],[-75.578385635000998,5.047400500282752],[-75.578595838745059,5.047533956922896],[-75.578824945013665,5.047590831239696],[-75.57905387772486,5.047571167418992],[-75.579282720435359,5.047513234525829],[-75.579288787817021,5.04750989761367],[-75.579338352999969,5.047630294000044],[-75.579342071999974,5.047639326000024],[-75.579671042999962,5.048438421000071],[-75.579672187999961,5.048441202000049],[-75.579676933999963,5.048435679000022],[-75.579681664999953,5.048430145000054],[-75.579682371999979,5.048429317000057],[-75.57968307699997,5.048428490000049],[-75.579693576999944,5.048416101000043],[-75.579704011999979,5.04840365900003],[-75.579704568999944,5.048402991000046],[-75.579705125999965,5.048402324000051],[-75.579773514999943,5.048317353000073],[-75.579838949999953,5.048230076000038],[-75.579901357999972,5.048140597000042],[-75.579960663999941,5.048049019000075],[-75.580016796999985,5.047955456000068],[-75.580069693999974,5.047860012000058],[-75.580171096999948,5.047664046000023],[-75.580276302999948,5.047470107000038],[-75.580385268999976,5.047278268000071],[-75.580436450999969,5.047199309000064],[-75.580484364999961,5.04711831700007],[-75.580528930999947,5.047035425000047],[-75.580570071999944,5.046950768000045],[-75.580607720999978,5.046864496000069],[-75.580641815999968,5.04677674800007],[-75.580672295999989,5.046687674000054],[-75.580702014999986,5.046602604000043],[-75.580744403999972,5.046509701000048],[-75.580799210999942,5.046423997000034],[-75.58085753499995,5.046340662000034],[-75.580919278999943,5.046259841000051],[-75.580968165304114,5.046201098828583],[-75.581016167568563,5.046227210560476],[-75.581131139808662,5.046437425337308],[-75.581219244969901,5.046459296343033],[-75.581181972999957,5.046603517000051],[-75.581172303999949,5.046630109000034],[-75.581170431999965,5.046635253000034],[-75.581169124999974,5.046638847000054],[-75.581150964999949,5.046688783000036],[-75.581151578999936,5.046797686000048],[-75.581151789999979,5.046835197000064],[-75.581152174999943,5.04690346600006],[-75.581091322835206,5.047030121144351],[-75.580941384137518,5.046897091497091],[-75.580712363841499,5.046878486871175],[-75.58054098628169,5.04703196165624],[-75.580465189145116,5.04726175056468],[-75.580446636109642,5.047491406809543],[-75.580447163586598,5.047721020640023],[-75.580390448746698,5.047950766258943],[-75.58035281529223,5.048180465848735],[-75.580296099559334,5.048410212401674],[-75.58025846613188,5.048639913821865],[-75.580220831816433,5.048869615255603],[-75.580164116982118,5.049099358227174],[-75.580088319831631,5.04932914998188],[-75.579991009545012,5.049509034872893],[-75.579918870999961,5.049485430000061],[-75.579766673999984,5.049465099000031],[-75.579677882999988,5.04948184400007],[-75.579614646999971,5.049549527000067],[-75.579610324999976,5.04955668100007],[-75.579606014999968,5.049563839000029],[-75.579527946214498,5.049718057931345],[-75.579383498397135,5.049847412730698],[-75.579345864795826,5.050077114295924],[-75.579441755581826,5.050287371710636],[-75.579546514127955,5.050334830093643],[-75.579593413999987,5.050436220000051],[-75.57969075799997,5.05054954600007],[-75.57983825499997,5.050721261000035],[-75.580061183999987,5.051044546000071],[-75.580207949999988,5.051274654000053],[-75.580153016999986,5.051438646000065],[-75.5801434514931,5.051457525221823],[-75.579969224535873,5.05147249018632],[-75.579740336656968,5.051511290406394],[-75.579702173655591,5.051511378939638],[-75.579630570984193,5.051537209114803],[-75.579478782490312,5.051497216228673],[-75.579482648994343,5.051473616703178],[-75.579482120286329,5.051244004535046],[-75.579481592521489,5.051014392361699],[-75.579385700594003,5.050804134117922],[-75.579270727275272,5.05059392006696],[-75.579079560473843,5.050441286397305],[-75.578869402279011,5.050326965856252],[-75.578697317098687,5.050174287762668],[-75.578601425630524,5.04996403010925],[-75.578562734565907,5.049734504376073],[-75.578409688837596,5.04956264826488],[-75.578180932498256,5.04965884848643],[-75.57812421513411,5.049888594397093],[-75.578220149637971,5.05011798672709],[-75.578354159947565,5.050309021555839],[-75.578488171262464,5.050500059024373],[-75.578660254743738,5.050652737160376],[-75.578756145542911,5.050862995647204],[-75.578832999936139,5.051092431017046],[-75.578813050440033,5.051121150142349],[-75.578607739999939,5.050923714000021],[-75.578215944999954,5.050732061000076],[-75.577920837999955,5.050602582000067],[-75.577816827380076,5.050586531345193],[-75.577743951562553,5.050482643934465],[-75.577590903872562,5.050310787619956],[-75.577510701519699,5.050284185392713],[-75.577571340408312,5.050100352899651],[-75.577437328516851,5.049909317775682],[-75.577341438344661,5.049699059702728],[-75.577307060609968,5.049562505731598],[-75.57736146842241,5.049433899169456]]]]}},
{"type":"Feature","properties":{"OBJECTID":4155,"PROYECTO":"Contrato 267 de 2020","ID_COBERT":4155,"CODIGO":2222,"N1_COBERT":2.0,"N2_COBERT":22.0,"N3_COBERT":222.0,"N4_COBERT":2222.0,"N5_COBERT":0.0,"N6_COBERT":0.0,"CODIGO_FIN":"2.2.2.2.","NOMENCLATU":"2.2.2.2. Cafe","INSUMO":"RAPIDEYE_1841412_2018-08-11_RE3_3A","APOYO":"Imagenes Bing, Google Earth, Shapefile de lotes cafeteros","CONFIABILI":"SI","OBSERVACIO":null,"ANO_ESTUDI":"2021","AREA_HA":5.16,"Shape_Leng":1480.85649704,"Shape_Area":51641.403116400004},"geometry":{"type":"MultiPolygon","coordinates":[[[[-75.577400646999934,5.050468151000075],[-75.577395830171881,5.050384980848418],[-75.577495541343282,5.050330143067424],[-75.577510701519699,5.050284185392713],[-75.577590903872562,5.050310787619956],[-75.577743951562553,5.050482643934465],[-75.577816827380076,5.050586531345193],[-75.577708988999973,5.050569890000077],[-75.577548278999984,5.050640356000031],[-75.577451653999958,5.050768925000057],[-75.577439347834641,5.050787617945596],[-75.577439132211666,5.050693829866015],[-75.57739812245795,5.050557889792586],[-75.577400646999934,5.050468151000075]]],[[[-75.579395859999977,5.051475368000069],[-75.578966067999943,5.051268299000071],[-75.578813050440033,5.051121150142349],[-75.578832999936139,5.051092431017046],[-75.578756145542911,5.050862995647204],[-75.578660254743738,5.050652737160376],[-75.578488171262464,5.050500059024373],[-75.578354159947565,5.050309021555839],[-75.578220149637971,5.05011798672709],[-75.57812421513411,5.049888594397093],[-75.578180932498256,5.04965884848643],[-75.578409688837596,5.04956264826488],[-75.578562734565907,5.049734504376073],[-75.578601425630524,5.04996403010925],[-75.578697317098687,5.050174287762668],[-75.578869402279011,5.050326965856252],[-75.579079560473843,5.050441286397305],[-75.579270727275272,5.05059392006696],[-75.579385700594003,5.050804134117922],[-75.579481592521489,5.051014392361699],[-75.579482120286329,5.051244004535046],[-75.579482648994343,5.051473616703178],[-75.579478782490312,5.051497216228673],[-75.579395859999977,5.051475368000069]]]]}},
{"type":"Feature","properties":{"OBJECTID":4381,"PROYECTO":"Contrato 267 de 2020","ID_COBERT":4381,"CODIGO":2222,"N1_COBERT":2.0,"N2_COBERT":22.0,"N3_COBERT":222.0,"N4_COBERT":2222.0,"N5_COBERT":0.0,"N6_COBERT":0.0,"CODIGO_FIN":"2.2.2.2.","NOMENCLATU":"2.2.2.2. Cafe","INSUMO":"RAPIDEYE_1841412_2018-08-11_RE3_3A","APOYO":"Imagenes Bing, Google Earth","CONFIABILI":"SI","OBSERVACIO":null,"ANO_ESTUDI":"2021","AREA_HA":21.99,"Shape_Leng":3080.76687907,"Shape_Area":219927.718066},"geometry":{"type":"MultiPolygon","coordinates":[[[[-75.575731167999948,5.048766084000022],[-75.575713335999978,5.048642315000052],[-75.575674533999972,5.048372979000021],[-75.575674533999972,5.048372626000059],[-75.575650508999956,5.048099701000069],[-75.575642585999958,5.048009715000035],[-75.575648017999981,5.047970712000051],[-75.575670033999984,5.04781259300006],[-75.575671252999939,5.047803850000037],[-75.575683745999982,5.047714124000038],[-75.575712093999982,5.047485499000061],[-75.575746816999981,5.047428283000045],[-75.57577859099996,5.047369371000059],[-75.575807331999954,5.04730891600002],[-75.575832969999965,5.047247070000026],[-75.575833461999935,5.047245689000022],[-75.575855433999948,5.047183996000058],[-75.575874669999962,5.04711985800003],[-75.575890621999974,5.047054819000039],[-75.57590348399998,5.046995480000021],[-75.575919704999933,5.046936975000051],[-75.57593923099995,5.046879494000052],[-75.575958985999989,5.046830176000071],[-75.575981172999946,5.04678191000005],[-75.576005739999971,5.046734814000047],[-75.576032622999946,5.046689011000069],[-75.576040287999945,5.046676934000061],[-75.576051002999975,5.046663403000025],[-75.57607195199995,5.046636945000046],[-75.576092146760573,5.046611441083893],[-75.576175777762472,5.04660425798729],[-75.576385452503246,5.046508101148096],[-75.576499458128808,5.046297357476445],[-75.576575256058732,5.046067568371138],[-75.576631973485306,5.045837821562125],[-75.57686086029733,5.045799026071101],[-75.577090010919861,5.045875035022538],[-75.577300125072526,5.045970221603897],[-75.577529189549523,5.046007962179266],[-75.577758075296416,5.045969165467886],[-75.577986918762932,5.04591123235088],[-75.578009439848557,5.045888544338966],[-75.578039801999978,5.045887608000044],[-75.57809862199997,5.04588177200003],[-75.578156912999987,5.04587194800007],[-75.578214401999958,5.045858183000064],[-75.578270832999976,5.045840541000075],[-75.578325936999988,5.045819098000038],[-75.578379464999955,5.045793959000036],[-75.578431167999952,5.045765237000069],[-75.578413280999939,5.045738232000076],[-75.578392844999939,5.045713112000044],[-75.578370055999983,5.04569011600006],[-75.578367502999981,5.04568800100003],[-75.57834513399996,5.045669467000039],[-75.578318314999933,5.045651362000058],[-75.578249639999967,5.045615560000044],[-75.578230286951921,5.045605471300506],[-75.578272258897542,5.045527883545425],[-75.578367181485646,5.045317182265683],[-75.578442977809971,5.045087394238617],[-75.578461532844926,5.044857737705922],[-75.578451478618206,5.044740039244845],[-75.578465038852627,5.0447099389406],[-75.578559918283702,5.044480105009838],[-75.57859755286961,5.044250404382539],[-75.578635187465494,5.044020702861077],[-75.578691903361943,5.043790956325041],[-75.578805907113022,5.043580214668477],[-75.578919910804203,5.043369470316082],[-75.579014833186392,5.043158771909315],[-75.579090630267672,5.042928980418219],[-75.579091880335071,5.042926205664918],[-75.57919022699997,5.04277174300006],[-75.579208800999936,5.042739500000039],[-75.579293304999965,5.042592827000021],[-75.579333453999936,5.042523136000057],[-75.579369309999947,5.042460904000052],[-75.579414101539385,5.042368047116534],[-75.57942895789111,5.042368012736469],[-75.579657886911619,5.04234834784697],[-75.579868044538173,5.042462670297003],[-75.580002096460788,5.042672839878581],[-75.580059866645882,5.042902321381971],[-75.580117638709737,5.043131801946658],[-75.580214837066492,5.04330951857674],[-75.580260743999986,5.043432529000029],[-75.580366321999975,5.043889610000065],[-75.580577399999981,5.043848614000069],[-75.580608806999976,5.043843172000038],[-75.580640625999933,5.04384131300003],[-75.580672451999988,5.043843062000064],[-75.580703877999952,5.043848396000044],[-75.580734503999963,5.043857246000073],[-75.58076393999994,5.043869502000064],[-75.580791812999962,5.043885006000039],[-75.580817764999949,5.043903559000057],[-75.58084146799996,5.043924926000045],[-75.580862617999969,5.043948837000073],[-75.58094968499995,5.043866069000046],[-75.580981753999936,5.043834703000073],[-75.581016614999953,5.043806491000055],[-75.581053962999988,5.043781681000041],[-75.58109346599997,5.043760494000026],[-75.581134776999988,5.043743115000041],[-75.58117753099998,5.043729696000071],[-75.581223432999934,5.043730061000076],[-75.581269166999959,5.043734006000022],[-75.58130149580353,5.043739363083598],[-75.58147398707942,5.043817504906551],[-75.581646070101741,5.043970183720115],[-75.581856226609133,5.044084504177486],[-75.582066339960889,5.044179689158209],[-75.582276541578182,5.044313145670453],[-75.582410550586104,5.044504178789277],[-75.582487405064057,5.044733615295761],[-75.582512355991213,5.04488162953932],[-75.582487497999978,5.044922821000057],[-75.582489396999961,5.044925301000035],[-75.582503489999965,5.04494371800007],[-75.582520339475053,5.044971426920024],[-75.582392969471385,5.045154792774635],[-75.582309225411649,5.045239160384258],[-75.582221634192436,5.045327400238662],[-75.582012005684518,5.045442692796311],[-75.581783075211078,5.045462357230764],[-75.581554012366126,5.045424619086287],[-75.581325169094271,5.045482550504691],[-75.581153791055684,5.045636024295227],[-75.581020662847649,5.04582767769887],[-75.580734621251239,5.045904878851008],[-75.580696459505788,5.045904966367003],[-75.580467570883329,5.045943765837356],[-75.580238683993215,5.045982564329545],[-75.580067305477485,5.046136037125019],[-75.580018807664544,5.04624368747629],[-75.579867630999956,5.046026052000059],[-75.579424717999984,5.046602612000072],[-75.579551265189011,5.046806699515636],[-75.579496494576503,5.046845334753019],[-75.579325117465871,5.046998807547072],[-75.579115485774878,5.047114098803531],[-75.57890581083862,5.047210257325623],[-75.578676968116014,5.047268189144769],[-75.578447816119834,5.047192181106091],[-75.578256694825285,5.047058681088734],[-75.578084612761728,5.046906002296493],[-75.577912528072531,5.046753324331533],[-75.577721406978185,5.04661982312867],[-75.577717444955425,5.046619500723953],[-75.577492388099571,5.046601217260844],[-75.577458038524739,5.046620108638004],[-75.577282756780008,5.046716508926789],[-75.577149628769803,5.046908161314058],[-75.577054703920652,5.047118861829199],[-75.577017069995875,5.047348562708107],[-75.577170115608666,5.047520419608966],[-75.57728508738883,5.047730633770478],[-75.577342858091697,5.047960114840005],[-75.577457830065271,5.048170329804269],[-75.577686983431192,5.04824633897459],[-75.577859065965427,5.048399016829275],[-75.57793592027349,5.048628454436004],[-75.577898285065629,5.048858155249416],[-75.577746028975113,5.049030718444503],[-75.577517096397031,5.049050381177191],[-75.577288120633597,5.049050910204429],[-75.577201069908952,5.049003556667312],[-75.577077962125117,5.048936587787151],[-75.576924915105025,5.04876473193658],[-75.576752832519801,5.048612052868709],[-75.576523810962556,5.048593447010653],[-75.576371555271606,5.048766010034938],[-75.576142709592915,5.048823942262544],[-75.575932683163785,5.048767022991141],[-75.575913557691692,5.048747931647791],[-75.575728992764056,5.048779216215501],[-75.575731167999948,5.048766084000022]]]]}},
{"type":"Feature","properties":{"OBJECTID":5673,"PROYECTO":"Contrato 267 de 2020","ID_COBERT":5673,"CODIGO":231,"N1_COBERT":2.0,"N2_COBERT":23.0,"N3_COBERT":231.0,"N4_COBERT":0.0,"N5_COBERT":0.0,"N6_COBERT":0.0,"CODIGO_FIN":"2.3.1.","NOMENCLATU":"2.3.1. Pastos limpios","INSUMO":"RAPIDEYE_1841412_2018-08-11_RE3_3A","APOYO":"Imagenes Bing, Google Earth","CONFIABILI":"SI","OBSERVACIO":null,"ANO_ESTUDI":"2021","AREA_HA":4.25,"Shape_Leng":1904.588946,"Shape_Area":42538.994935900002},"geometry":{"type":"MultiPolygon","coordinates":[[[[-75.581314457999952,5.043741511000064],[-75.581359026999962,5.043752527000038],[-75.581402607999962,5.043766988000073],[-75.581444932999943,5.04378480500003],[-75.581485746999988,5.043805873000053],[-75.581524802999979,5.043830064000076],[-75.581657268338986,5.043632231519817],[-75.581764015557923,5.043680590422082],[-75.581845903858479,5.043717687849488],[-75.582610489642605,5.044206951854132],[-75.58270053746709,5.044348129368979],[-75.5827551232085,5.044564958240699],[-75.582727407999982,5.044594351000057],[-75.582697181999947,5.044628140000043],[-75.58269564699998,5.04462985400005],[-75.582695229999956,5.044630336000068],[-75.582690309999975,5.044636008000055],[-75.582690262999961,5.044636062000052],[-75.582634430999974,5.044703987000048],[-75.58260013599994,5.044750084000043],[-75.582581950999952,5.044774526000026],[-75.58253293599995,5.044847527000059],[-75.582512355991213,5.04488162953932],[-75.582487405064057,5.044733615295761],[-75.582410550586104,5.044504178789277],[-75.582276541578182,5.044313145670453],[-75.582066339960889,5.044179689158209],[-75.581856226609133,5.044084504177486],[-75.581646070101741,5.043970183720115],[-75.58147398707942,5.043817504906551],[-75.58130149580353,5.043739363083598],[-75.581314457999952,5.043741511000064]]],[[[-75.582577601999958,5.04506559500004],[-75.582593029999941,5.045256147000032],[-75.582548500999962,5.045364733000042],[-75.582531382999946,5.04540647500005],[-75.582474485298505,5.045445355367382],[-75.58234965032068,5.045267397767914],[-75.582309225411649,5.045239160384258],[-75.582392969471385,5.045154792774635],[-75.582520339475053,5.044971426920024],[-75.582577601999958,5.04506559500004]]]]}},
{"type":"Feature","properties":{"OBJECTID":8092,"PROYECTO":"Contrato 267 de 2020","ID_COBERT":8092,"CODIGO":2451,"N1_COBERT":2.0,"N2_COBERT":24.0,"N3_COBERT":245.0,"N4_COBERT":2451.0,"N5_COBERT":0.0,"N6_COBERT":0.0,"CODIGO_FIN":"2.4.5.1.","NOMENCLATU":"2.4.5.1. Mosaico de cultivos y espacios naturales arboreos","INSUMO":"RAPIDEYE_1841412_2018-08-11_RE3_3A","APOYO":"Imagenes Bing, Google Earth, Shapefile de lotes cafeteros","CONFIABILI":"SI","OBSERVACIO":null,"ANO_ESTUDI":"2021","AREA_HA":14.95,"Shape_Leng":4238.3734623199998,"Shape_Area":149504.152913},"geometry":{"type":"MultiPolygon","coordinates":[[[[-75.577395481999986,5.050651749000053],[-75.57739812245795,5.050557889792586],[-75.577439132211666,5.050693829866015],[-75.577439347834641,5.050787617945596],[-75.57735697399994,5.050912743000026],[-75.577395481999986,5.050651749000053]]],[[[-75.577379643999961,5.050105501000075],[-75.577242800999954,5.04971280500007],[-75.577291230999947,5.049599923000073],[-75.577307060609968,5.049562505731598],[-75.577341438344661,5.049699059702728],[-75.577437328516851,5.049909317775682],[-75.577571340408312,5.050100352899651],[-75.577510701519699,5.050284185392713],[-75.577495541343282,5.050330143067424],[-75.577395830171881,5.050384980848418],[-75.577379643999961,5.050105501000075]]],[[[-75.577156982999952,5.049305962000062],[-75.577063501999987,5.049284990000046],[-75.576987172999964,5.049261453000042],[-75.576902184999938,5.049224391000052],[-75.576566711999988,5.049116408000032],[-75.576352023999959,5.049092684000072],[-75.576187584999957,5.049076346000049],[-75.576093652999987,5.049067458000025],[-75.576015204999976,5.049060036000071],[-75.575905471999988,5.049081513000033],[-75.575766742999974,5.049104026000066],[-75.57568181299996,5.049130631000025],[-75.575678293999943,5.049118487000044],[-75.575677191999944,5.049114684000074],[-75.575676622999936,5.049112725000043],[-75.575676021999982,5.049110650000046],[-75.575674794999941,5.049106416000029],[-75.575728992764056,5.048779216215501],[-75.575913557691692,5.048747931647791],[-75.575932683163785,5.048767022991141],[-75.576142709592915,5.048823942262544],[-75.576371555271606,5.048766010034938],[-75.576523810962556,5.048593447010653],[-75.576752832519801,5.048612052868709],[-75.576924915105025,5.04876473193658],[-75.577077962125117,5.048936587787151],[-75.577201069908952,5.049003556667312],[-75.577187379969928,5.049087110671405],[-75.57720698895956,5.049316680014223],[-75.577206999575168,5.049321292711898],[-75.577156982999952,5.049305962000062]]]]}},
{"type":"Feature","properties":{"OBJECTID":8211,"PROYECTO":"Contrato 267 de 2020","ID_COBERT":8211,"CODIGO":2453,"N1_COBERT":2.0,"N2_COBERT":24.0,"N3_COBERT":245.0,"N4_COBERT":2453.0,"N5_COBERT":0.0,"N6_COBERT":0.0,"CODIGO_FIN":"2.4.5.3.","NOMENCLATU":"2.4.5.3. Mosaico de cultivos y espacios naturales herbaceos","INSUMO":"RAPIDEYE_1841412_2018-08-11_RE3_3A","APOYO":"Imagenes Bing, Google Earth, Shapefile de lotes cafeteros","CONFIABILI":"SI","OBSERVACIO":null,"ANO_ESTUDI":"2021","AREA_HA":2.33,"Shape_Leng":927.64918684700001,"Shape_Area":23273.023046400001},"geometry":{"type":"MultiPolygon","coordinates":[[[[-75.576101278999943,5.046599908000076],[-75.576137499999959,5.04655419900007],[-75.576168133999943,5.046514686000023],[-75.576193671999988,5.04648579600007],[-75.576217352999947,5.046458812000026],[-75.576244747999965,5.04642971800007],[-75.575864944999978,5.046332509000024],[-75.575873040999966,5.046281246000035],[-75.575885193999966,5.046230795000042],[-75.575901327999986,5.04618148000003],[-75.575921336999954,5.046133613000052],[-75.575945097999977,5.046087503000024],[-75.575972454999942,5.04604344400002],[-75.576003233999984,5.046001716000035],[-75.57603723699998,5.045962587000076],[-75.576070657999935,5.045929582000042],[-75.576106376999974,5.045899090000034],[-75.57612131999997,5.045884917000024],[-75.576135791999945,5.045870262000051],[-75.576136129999952,5.045869909000032],[-75.57613646599998,5.045869554000035],[-75.576136521999956,5.045869496000023],[-75.576136857999984,5.045869142000072],[-75.576137192999965,5.045868790000043],[-75.576137587999938,5.045868374000065],[-75.576137981999977,5.045867957000041],[-75.576138312999944,5.045867606000058],[-75.576138641999989,5.045867259000033],[-75.57613871999996,5.045867176000058],[-75.576139042999955,5.045866833000048],[-75.57613936499996,5.045866490000037],[-75.576139769999941,5.045866060000037],[-75.576140172999942,5.045865630000037],[-75.576140491,5.045865290000052],[-75.576140806999945,5.045864951000055],[-75.576142467999944,5.045863165000071],[-75.57614412199996,5.045861373000037],[-75.57614439699995,5.045861074000072],[-75.576144670999952,5.04586077600004],[-75.576145292999968,5.045860096000069],[-75.576145912999948,5.045859416000042],[-75.576146218999952,5.045859083000039],[-75.576146521999988,5.045858748000057],[-75.576149766999947,5.045855151000069],[-75.576152982999986,5.04585153000005],[-75.576153266999938,5.045851209000034],[-75.576153548999969,5.04585088500005],[-75.576153671999975,5.045850747000031],[-75.576153958999953,5.045850421000068],[-75.576154244999941,5.045850094000059],[-75.576154661999965,5.045849615000066],[-75.576155079999978,5.04584913900004],[-75.576155355999958,5.04584882100005],[-75.576155630999949,5.045848504000048],[-75.57615691999996,5.045847018000075],[-75.576158204999956,5.04584552700004],[-75.576158487999976,5.045845200000031],[-75.576158766999981,5.045844871000043],[-75.576158994999957,5.04584460500007],[-75.576159224999969,5.045844338000052],[-75.576159492999977,5.045844023000029],[-75.576159759999939,5.045843710000042],[-75.576159900999983,5.045843544000036],[-75.576160171999959,5.045843226000045],[-75.576160443999981,5.045842907000065],[-75.576161466999963,5.04584170000004],[-75.576162486999976,5.045840490000046],[-75.576163421,5.04583937700005],[-75.576164351999978,5.045838260000039],[-75.57616464299997,5.045837910000046],[-75.576164933999962,5.045837560000052],[-75.576165828999933,5.045836483000073],[-75.576166720999936,5.045835402000023],[-75.576166975999968,5.045835090000026],[-75.576167231999989,5.045834779000074],[-75.576195611999935,5.045797460000074],[-75.576221141999952,5.045758126000067],[-75.576243683999962,5.045716994000031],[-75.576263105999942,5.045674293000047],[-75.576279305999947,5.045630262000032],[-75.576285815999938,5.045610258000067],[-75.576296279999951,5.045592018000036],[-75.576310254999953,5.045576322000045],[-75.576327146999972,5.045563836000042],[-75.576346232999981,5.045555093000075],[-75.576366701999973,5.045550463000041],[-75.57638768399994,5.045550146000039],[-75.57648295599995,5.045562572000051],[-75.57657775399997,5.04557821700007],[-75.576669945999981,5.045596620000026],[-75.57676147799998,5.045618068000067],[-75.576852253999959,5.045642536000059],[-75.576942176999978,5.045669998000051],[-75.577031143999989,5.045700425000064],[-75.577119061999952,5.045733781000024],[-75.577217706999988,5.045775258000049],[-75.577314728999966,5.045820423000066],[-75.577409987999943,5.045869215000039],[-75.577503350999962,5.045921562000046],[-75.577504089999934,5.045921994000025],[-75.577504825999938,5.045922426000061],[-75.577533326999969,5.045938712000066],[-75.577563598999973,5.045951388000049],[-75.577595187999975,5.045960262000051],[-75.577627619999987,5.045965202000048],[-75.577660410999954,5.045966136000061],[-75.577693069999953,5.045963046000054],[-75.57774885699996,5.045940176000045],[-75.577805631,5.045919888000071],[-75.577863270999956,5.045902227000056],[-75.577921653999965,5.045887229000073],[-75.57798072099996,5.045889430000045],[-75.578009439848557,5.045888544338966],[-75.577986918762932,5.04591123235088],[-75.577758075296416,5.045969165467886],[-75.577529189549523,5.046007962179266],[-75.577300125072526,5.045970221603897],[-75.577090010919861,5.045875035022538],[-75.57686086029733,5.045799026071101],[-75.576631973485306,5.045837821562125],[-75.576575256058732,5.046067568371138],[-75.576499458128808,5.046297357476445],[-75.576385452503246,5.046508101148096],[-75.576175777762472,5.04660425798729],[-75.576092146760573,5.046611441083893],[-75.576101278999943,5.046599908000076]]],[[[-75.57793819799997,5.045453206000047],[-75.578007946999946,5.045422444000053],[-75.578070327945355,5.0453783219941],[-75.578103990570455,5.045361346494442],[-75.578115610727565,5.045346293508914],[-75.578132230999984,5.04533453800002],[-75.578243687999986,5.045202516000074],[-75.578295929097266,5.045057779464377],[-75.578370118084422,5.044920637457296],[-75.578451478618206,5.044740039244845],[-75.578461532844926,5.044857737705922],[-75.578442977809971,5.045087394238617],[-75.578367181485646,5.045317182265683],[-75.578272258897542,5.045527883545425],[-75.578230286951921,5.045605471300506],[-75.57793819799997,5.045453206000047]]]]}},
{"type":"Feature","properties":{"OBJECTID":8214,"PROYECTO":"Contrato 267 de 2020","ID_COBERT":8214,"CODIGO":2453,"N1_COBERT":2.0,"N2_COBERT":24.0,"N3_COBERT":245.0,"N4_COBERT":2453.0,"N5_COBERT":0.0,"N6_COBERT":0.0,"CODIGO_FIN":"2.4.5.3.","NOMENCLATU":"2.4.5.3. Mosaico de cultivos y espacios naturales herbaceos","INSUMO":"RAPIDEYE_1841412_2018-08-11_RE3_3A","APOYO":"Imagenes Bing, Google Earth, Shapefile de lotes cafeteros","CONFIABILI":"SI","OBSERVACIO":null,"ANO_ESTUDI":"2021","AREA_HA":7.47,"Shape_Leng":1298.38683143,"Shape_Area":74656.758999800004},"geometry":{"type":"MultiPolygon","coordinates":[[[[-75.581052356999976,5.047111223000059],[-75.580929576999949,5.047366772000032],[-75.58087029099994,5.047488954000073],[-75.580781572999967,5.047671797000021],[-75.580778210999938,5.047678725000026],[-75.580732,5.04777817400003],[-75.580670826999949,5.047909826000023],[-75.580519767999988,5.048083813000062],[-75.580513202999953,5.048436890000062],[-75.580500464999943,5.04878929900002],[-75.580537997999954,5.048908977000053],[-75.580501215999959,5.048979892000034],[-75.580548289999967,5.049032981000039],[-75.580561432999957,5.049047805000043],[-75.580533764999984,5.049222223000072],[-75.580529113999944,5.049251543000025],[-75.580547225999965,5.049348412000029],[-75.580551518999982,5.049371373000042],[-75.580597445999956,5.04946721400006],[-75.580628548999982,5.049528513000041],[-75.58063229399994,5.049609315000055],[-75.580634695999947,5.049661137000044],[-75.580634724999982,5.049661767000032],[-75.580636540999933,5.049700929000039],[-75.580638323999949,5.049728338000023],[-75.580628919999981,5.049726430000021],[-75.580618439999967,5.049724304000051],[-75.580616620999933,5.049723934000042],[-75.580502024999987,5.049700684000072],[-75.580326519999971,5.049635524000053],[-75.580139587999952,5.049558916000024],[-75.580124291999937,5.049552647000041],[-75.579991009545012,5.049509034872893],[-75.580088319831631,5.04932914998188],[-75.580164116982118,5.049099358227174],[-75.580220831816433,5.048869615255603],[-75.58025846613188,5.048639913821865],[-75.580296099559334,5.048410212401674],[-75.58035281529223,5.048180465848735],[-75.580390448746698,5.047950766258943],[-75.580447163586598,5.047721020640023],[-75.580446636109642,5.047491406809543],[-75.580465189145116,5.04726175056468],[-75.58054098628169,5.04703196165624],[-75.580712363841499,5.046878486871175],[-75.580941384137518,5.046897091497091],[-75.581091322835206,5.047030121144351],[-75.581052356999976,5.047111223000059]]],[[[-75.579506894999952,5.049759643000073],[-75.579495677999944,5.049781800000062],[-75.579485767999984,5.049801376000062],[-75.579473521999944,5.049893860000054],[-75.57946911199997,5.049927162000074],[-75.579479416999959,5.050189777000071],[-75.579546514127955,5.050334830093643],[-75.579441755581826,5.050287371710636],[-75.579345864795826,5.050077114295924],[-75.579383498397135,5.049847412730698],[-75.579527946214498,5.049718057931345],[-75.579506894999952,5.049759643000073]]]]}},
{"type":"Feature","properties":{"OBJECTID":11489,"PROYECTO":"Contrato 267 de 2020","ID_COBERT":11489,"CODIGO":3232,"N1_COBERT":3.0,"N2_COBERT":32.0,"N3_COBERT":323.0,"N4_COBERT":3232.0,"N5_COBERT":0.0,"N6_COBERT":0.0,"CODIGO_FIN":"3.2.3.2.","NOMENCLATU":"3.2.3.2. Vegetacion secundaria baja","INSUMO":"RAPIDEYE_1841412_2018-08-11_RE3_3A","APOYO":"Imagenes Bing, Google Earth","CONFIABILI":"SI","OBSERVACIO":null,"ANO_ESTUDI":"2021","AREA_HA":5.4,"Shape_Leng":3003.1005734400001,"Shape_Area":54006.465709699994},"geometry":{"type":"MultiPolygon","coordinates":[[[[-75.577402314999972,5.049337348000051],[-75.57731347899994,5.049353930000052],[-75.577206999575168,5.049321292711898],[-75.57720698895956,5.049316680014223],[-75.577187379969928,5.049087110671405],[-75.577201069908952,5.049003556667312],[-75.577288120633597,5.049050910204429],[-75.577517096397031,5.049050381177191],[-75.577746028975113,5.049030718444503],[-75.577898285065629,5.048858155249416],[-75.57793592027349,5.048628454436004],[-75.577859065965427,5.048399016829275],[-75.577686983431192,5.04824633897459],[-75.577457830065271,5.048170329804269],[-75.577342858091697,5.047960114840005],[-75.57728508738883,5.047730633770478],[-75.577170115608666,5.047520419608966],[-75.577017069995875,5.047348562708107],[-75.577054703920652,5.047118861829199],[-75.577149628769803,5.046908161314058],[-75.577282756780008,5.046716508926789],[-75.577458038524739,5.046620108638004],[-75.577492388099571,5.046601217260844],[-75.577717444955425,5.046619500723953],[-75.577721406978185,5.04661982312867],[-75.577912528072531,5.046753324331533],[-75.578084612761728,5.046906002296493],[-75.578256694825285,5.047058681088734],[-75.578447816119834,5.047192181106091],[-75.578676968116014,5.047268189144769],[-75.57890581083862,5.047210257325623],[-75.579115485774878,5.047114098803531],[-75.579325117465871,5.046998807547072],[-75.579496494576503,5.046845334753019],[-75.579551265189011,5.046806699515636],[-75.579625558999965,5.046926516000042],[-75.579562546999966,5.046990482000069],[-75.579561370999954,5.046991676000061],[-75.579551269999968,5.047001928000043],[-75.579241063999973,5.047393974000045],[-75.579288787817021,5.04750989761367],[-75.579282720435359,5.047513234525829],[-75.57905387772486,5.047571167418992],[-75.578824945013665,5.047590831239696],[-75.578595838745059,5.047533956922896],[-75.578385635000998,5.047400500282752],[-75.578194513634202,5.047267002080766],[-75.578003393225401,5.047133501970089],[-75.57779327862103,5.04703831496001],[-75.577564347623863,5.047057977348167],[-75.577469423844079,5.047268677862202],[-75.577508114866575,5.047498203040467],[-75.57769927851821,5.047650837823351],[-75.57783328785446,5.047841873110475],[-75.577967298181704,5.04803290742101],[-75.578177456327424,5.048147229621931],[-75.578368577148737,5.048280729507208],[-75.578521625106333,5.048452586687118],[-75.578598477820478,5.048682024099519],[-75.578503554471965,5.04889272199327],[-75.578293879803937,5.048988879743999],[-75.578064991420035,5.04902767898295],[-75.577931863598735,5.049219332546621],[-75.577722186864875,5.049315489311426],[-75.577493342278643,5.049373421144809],[-75.57736146842241,5.049433899169456],[-75.577402314999972,5.049337348000051]]],[[[-75.582423033999987,5.045480514000076],[-75.58239565599996,5.045444548000035],[-75.582362437999961,5.045400914000027],[-75.582259593999936,5.045390731000055],[-75.58214669299997,5.045422083000062],[-75.582057976999977,5.04551649900003],[-75.582002142999954,5.045600939000053],[-75.581913443999952,5.045683893000046],[-75.581599049999966,5.04575935500003],[-75.581368373999965,5.045882985000048],[-75.581317285999944,5.045910366000044],[-75.58131704799996,5.045911658000023],[-75.581304300999989,5.045980658000076],[-75.581298987999958,5.046009420000075],[-75.581298597999989,5.046011540000052],[-75.581297841999969,5.046015628000021],[-75.581289116999983,5.046077976000049],[-75.581275773999948,5.046173327000076],[-75.581274328999939,5.046183646000031],[-75.581274275999988,5.046184027000038],[-75.58125524999997,5.046319978000042],[-75.581219244969901,5.046459296343033],[-75.581131139808662,5.046437425337308],[-75.581016167568563,5.046227210560476],[-75.580968165304114,5.046201098828583],[-75.580984330999968,5.046181674000024],[-75.581052580999938,5.046106300000076],[-75.581123907999938,5.046033846000057],[-75.581198190999942,5.04596444200007],[-75.581215876999977,5.045937871000035],[-75.580469171999937,5.046140395000066],[-75.580196056999966,5.046313330000032],[-75.580127285999936,5.046399854000072],[-75.580018807664544,5.04624368747629],[-75.580067305477485,5.046136037125019],[-75.580238683993215,5.045982564329545],[-75.580467570883329,5.045943765837356],[-75.580696459505788,5.045904966367003],[-75.580734621251239,5.045904878851008],[-75.581020662847649,5.04582767769887],[-75.581153791055684,5.045636024295227],[-75.581325169094271,5.045482550504691],[-75.581554012366126,5.045424619086287],[-75.581783075211078,5.045462357230764],[-75.582012005684518,5.045442692796311],[-75.582221634192436,5.045327400238662],[-75.582309225411649,5.045239160384258],[-75.58234965032068,5.045267397767914],[-75.582474485298505,5.045445355367382],[-75.582423033999987,5.045480514000076]]]]}}
]
}
