{
"type": "FeatureCollection",
"name": "Vias",
"crs": { "type": "name", "properties": { "name": "urn:ogc:def:crs:OGC:1.3:CRS84" } },
"features": [
{"type":"Feature","properties":{"ESRI_OID":1005,"gid":441,"objectid":441,"id_via":441,"coddep":"17","codvia":441,"nombre":"Carretera","tipo":"V1","estado":null,"condicion":null,"length":1329.16800369,"shape_leng":1329.16800369},"geometry":{"type":"LineString","coordinates":[[-75.563595176354326,5.046649925433229],[-75.563421846482086,5.046244652704454],[-75.563346246134373,5.045952156315501],[-75.563346397804935,5.045522757342635],[-75.563768783168399,5.045689032067824],[-75.564082421349809,5.046100764074276],[-75.564353944285216,5.046574741841406],[-75.564408848313846,5.046685355937875],[-75.564460801661639,5.04673721698788],[-75.564526215590178,5.046761927362159],[-75.564578022523435,5.046749378976282],[-75.564603852773914,5.046710900071428],[-75.56461669082988,5.046657760923727],[-75.564610915281108,5.046595624362681],[-75.56459404418969,5.046361753814494],[-75.56446428611217,5.045791402535513],[-75.564386017261583,5.045564452243971],[-75.563711664417852,5.044603236178105],[-75.563591380458661,5.044482601265098],[-75.563548833686539,5.044355008836337],[-75.563129582726944,5.043831647628603],[-75.563038696285901,5.043506416051462],[-75.563052729807353,5.043235184837282],[-75.563123282608146,5.043041794406031],[-75.563339777313217,5.042854850872603],[-75.563867801013302,5.042647986172534],[-75.563890291736755,5.042627594890811],[-75.563903411080815,5.042450155532947],[-75.563870601739836,5.042392600632068],[-75.563662252546123,5.042196456905158],[-75.563594016891912,5.042169492745164],[-75.563447111635,5.041986768616392],[-75.563460733015518,5.041782208172332],[-75.563723547582754,5.041399669584204],[-75.563912428873778,5.041210529089083],[-75.564125892806558,5.04092980276548],[-75.564255286308196,5.040596158532481],[-75.564284637132502,5.040371222310053],[-75.564782804411536,5.039423148403664],[-75.564790371598718,5.039281881645036]]}},
{"type":"Feature","properties":{"ESRI_OID":1010,"gid":446,"objectid":446,"id_via":446,"coddep":"17","codvia":446,"nombre":"Carretera","tipo":"V1","estado":null,"condicion":null,"length":3029.4778110500001,"shape_leng":3029.4778110500001},"geometry":{"type":"LineString","coordinates":[[-75.58577669364476,5.046645201789365],[-75.585351510753952,5.046243912812072],[-75.585210356399031,5.045380931249869],[-75.585142887672859,5.045198029971643],[-75.584782934139156,5.044985296654428],[-75.584546879683757,5.044993753312618],[-75.584032393095669,5.045202862091646],[-75.583799627941417,5.045171761378551],[-75.583411522789859,5.045212209239227],[-75.58286667758621,5.045205560101683],[-75.582769831747612,5.045232903830302],[-75.582740484517075,5.04521150197847],[-75.58270652335014,5.045143781349861],[-75.582723385673376,5.044636378383065],[-75.582662130913278,5.04446024216027],[-75.582483028032414,5.044243698941842],[-75.582268609148556,5.044105206382571],[-75.581726700997677,5.043905321427826],[-75.581009811435209,5.043320514430527],[-75.580573253382724,5.042870657575612],[-75.580565308442928,5.042845816190535],[-75.580600225218944,5.042593748311019],[-75.580962223492449,5.041980459153669],[-75.580837215228669,5.041766050162235],[-75.580700029788744,5.041646588198759],[-75.580495335471269,5.041571351545733],[-75.580167029066473,5.041644428511682],[-75.579890722911031,5.041789704587626],[-75.579742273587541,5.041917735771023],[-75.580533709278512,5.0408616306403],[-75.580792788729823,5.040329938427005],[-75.580927788148372,5.040233577865202],[-75.581096646960006,5.040160868859852],[-75.581265687329804,5.04016725852328],[-75.581788981114954,5.04035927792767],[-75.58191857977495,5.040364628514636],[-75.582334728660982,5.040269878201479],[-75.582543548184134,5.040178996745202],[-75.582740078964633,5.040134473092958],[-75.58346635270884,5.040146354050137],[-75.583764620330214,5.040241713151366],[-75.583967304916854,5.040423172125163],[-75.584265089593771,5.041288052437991],[-75.584473735609464,5.041366668612043],[-75.585008119452326,5.041480690185337],[-75.585458454171956,5.041796043292836],[-75.585756591336207,5.042078978990054],[-75.585914242739449,5.042277491114205],[-75.586049094588162,5.042361927526199],[-75.586150574681596,5.042389941992136],[-75.586319270639422,5.042491249672556],[-75.586606120044465,5.042521094375853],[-75.586820006649631,5.042673146437158],[-75.587186015366939,5.043068922234903],[-75.587276214204508,5.043091312719929],[-75.587349354150561,5.043045943705643],[-75.587489684053111,5.043062567958293],[-75.587619455020672,5.04314249578344],[-75.587827407769183,5.043408689527457],[-75.587900516218127,5.043593837247506],[-75.588030133246534,5.044339325787315],[-75.588181862238457,5.044656499021825],[-75.588609311715004,5.045063430604936],[-75.588631663438051,5.045227226303999],[-75.588603923126186,5.04541373800887],[-75.588541618534833,5.045515581227287],[-75.588502111656496,5.045730369854649],[-75.588485595664864,5.046141722226498],[-75.588552914399628,5.046503160587257],[-75.588644115721891,5.046715385616118],[-75.58839218133167,5.046922757845381],[-75.58816544147588,5.04706114250184],[-75.587788265667044,5.047198746462094],[-75.587275203546312,5.047292596319925],[-75.587084798679626,5.047306598091988],[-75.586761066653395,5.04716497136707],[-75.586577707266741,5.047058048292291],[-75.586209462586666,5.046915394507761],[-75.585828640365307,5.04669367068857]]}},
{"type":"Feature","properties":{"ESRI_OID":1012,"gid":448,"objectid":448,"id_via":448,"coddep":"17","codvia":448,"nombre":"Carretera","tipo":"V1","estado":null,"condicion":null,"length":1997.28977891,"shape_leng":1997.28977891},"geometry":{"type":"LineString","coordinates":[[-75.587054793878238,5.047488595196531],[-75.587053103615816,5.047488599119731],[-75.586679177498553,5.047325619173339],[-75.586499203803996,5.047220948199278],[-75.586131522445996,5.047078293086384],[-75.585720799750419,5.046839688799995],[-75.585610129619781,5.046735986782025],[-75.585181534949129,5.046321145768113],[-75.585035239686263,5.045427666416455],[-75.584996116399864,5.045320408454725],[-75.584737155437978,5.045168460347796],[-75.584585045206268,5.04517446261137],[-75.584055920007856,5.045388125297218],[-75.583797229670594,5.045353694673882],[-75.583419826791726,5.045392987808429],[-75.582890757200715,5.045386302222944],[-75.582733103559889,5.045431866426186],[-75.582598212192678,5.045330479685281],[-75.582525193101048,5.04518375032717],[-75.582542026970216,5.044663917536333],[-75.582502891138049,5.044551009382652],[-75.582362207313082,5.044380706730212],[-75.58218785091438,5.04426811120788],[-75.581635793280299,5.04406485971501],[-75.580887855814581,5.043454134647636],[-75.580459769740742,5.043013298055415],[-75.580429804775207,5.042968167728664],[-75.580381104315379,5.042860931324826],[-75.580426552301944,5.042533129939208],[-75.580753192944499,5.041979811820232],[-75.580696630656988,5.041883893459192],[-75.580606863070244,5.041803871572805],[-75.580482807444639,5.041758958437506],[-75.580229399195218,5.04181604273522],[-75.579993046400233,5.041939756883682],[-75.579402068432202,5.042453005106309],[-75.579047604630048,5.042667390578698],[-75.578737793188822,5.042943822326776],[-75.578163265170858,5.043751959133968],[-75.577892957029746,5.044056549371381],[-75.577476327647588,5.044434926138479],[-75.577324884026538,5.044486124704794],[-75.577217818545535,5.044479591513947],[-75.577043488486439,5.044378294188534],[-75.577059948346516,5.044185028063199],[-75.577178696970975,5.043880787285551],[-75.577206414865898,5.043682975271781],[-75.577172836498463,5.043536154015513],[-75.576975773204296,5.043349029765257],[-75.576857914916317,5.043304101675288],[-75.576598780593145,5.043321648372571],[-75.576098017227835,5.043619988831444],[-75.575867170100054,5.043688319703422],[-75.575462094049641,5.043699422014374],[-75.575455314899926,5.04369152768431]]}},
{"type":"Feature","properties":{"ESRI_OID":1359,"gid":860,"objectid":1839,"id_via":1839,"coddep":"17","codvia":1839,"nombre":"Carreteable","tipo":"V2","estado":null,"condicion":null,"length":3527.0602252399999,"shape_leng":3527.0602252399999},"geometry":{"type":"LineString","coordinates":[[-75.587429400910608,5.026917490118753],[-75.587561161013141,5.027129057555405],[-75.587634450712173,5.027394434438301],[-75.58765712644302,5.027700042815359],[-75.58761193127188,5.027891679734387],[-75.58745439314805,5.028230474502525],[-75.587296424808386,5.028382257803147],[-75.586896898766469,5.028596748831191],[-75.5867559245644,5.028788607234936],[-75.586755791133825,5.028975620057124],[-75.586941619070302,5.029178587639977],[-75.587200731382836,5.029399465383635],[-75.587290416774209,5.029444457317238],[-75.587386507589144,5.02957983318716],[-75.587712613437972,5.029777955948502],[-75.587881411000353,5.029925028286064],[-75.588010835267866,5.03010044129898],[-75.588123487496773,5.030332392301506],[-75.588280808610108,5.031123016994249],[-75.588342951137292,5.03119575707385],[-75.588702889802818,5.031405665486318],[-75.588894475341704,5.031417086522142],[-75.589102270789354,5.03137253575018],[-75.589395323787571,5.031162809760004],[-75.589468553563336,5.031156990147804],[-75.589552593514767,5.031196909805958],[-75.589755353753432,5.031412266700709],[-75.589885002305309,5.031440215757466],[-75.590019605594719,5.031417869045141],[-75.590172132351498,5.031349716434518],[-75.590391394322864,5.031146941073011],[-75.590492794345849,5.031141056028108],[-75.5906164290802,5.031248682687122],[-75.590638962204679,5.031491576752773],[-75.590565662876699,5.031711528431647],[-75.59047028772784,5.031886896987682],[-75.5904079536636,5.032219821544032],[-75.590419127497398,5.032423192566011],[-75.590615937293947,5.032745346169964],[-75.590858162999012,5.032971910733146],[-75.59107793094995,5.032988350506245],[-75.591336460536525,5.03295554599653],[-75.591544646002916,5.033079925810769],[-75.591826440906559,5.03311882096595],[-75.591904938447001,5.033198302445271],[-75.592259492502947,5.033271492888641],[-75.592603042954835,5.033215325758574],[-75.592653817461539,5.033244587329198],[-75.592664678826679,5.033312361003897],[-75.592450994333475,5.033734340657781],[-75.592439319849959,5.034046242781543],[-75.592259483528053,5.03424327742193],[-75.592202970855766,5.034412906001157],[-75.592225637701432,5.034469352444312],[-75.592309676895354,5.034508706576013],[-75.593210428863358,5.034690800269694],[-75.593581517208094,5.034848134870451],[-75.59412769876441,5.035193768740483],[-75.594189567759415,5.035391371474415],[-75.594397621122397,5.035701632126551],[-75.594583390547157,5.035877476808844],[-75.594859279340156,5.036041811821851],[-75.594932233756765,5.03616028994646],[-75.594977135474153,5.036329682489027],[-75.595208213466918,5.036607119632502],[-75.595776210505576,5.036883771814212],[-75.595956477428885,5.03711612770505],[-75.596018203268883,5.037251581471537],[-75.596057549863517,5.037454886170143],[-75.596001152333542,5.038403070753982],[-75.596023884879926,5.038730711941005],[-75.596108281014182,5.038923741771488],[-75.596316336870842,5.038991055522784],[-75.596468392350104,5.03896245150343],[-75.596581011735324,5.038692123777393],[-75.596665274505142,5.038341633628697],[-75.596727276188318,5.037623952041641],[-75.597037206796443,5.036918122223038],[-75.597144086831491,5.036845554331609],[-75.597250754532169,5.037410295254696],[-75.597323997818236,5.037653069975192],[-75.597312700983352,5.038126557630122],[-75.597543295821197,5.038437893942935],[-75.597700566967561,5.039200262836148],[-75.597700871158878,5.039331339691139],[-75.59794283674205,5.03944377284921],[-75.598173337419666,5.039471484250886],[-75.598449345815894,5.039443720355243],[-75.598684770994751,5.039651086650137],[-75.598724857154181,5.03968715234252],[-75.598882746091761,5.039744412474445],[-75.599107612709105,5.039772136660239],[-75.59920355009028,5.039839711225879],[-75.599293539385712,5.040014647594034],[-75.599242794060387,5.040240761795197],[-75.599039770074896,5.040399433094631],[-75.599023010521236,5.040703436407684],[-75.599062711896167,5.040816341473588],[-75.599484451238794,5.040947563365469],[-75.59964218030359,5.040935894918248],[-75.599794133385458,5.040863221131759],[-75.600025053379682,5.040828781944548],[-75.600193581777049,5.040857767321867],[-75.60055980359418,5.041100986024627],[-75.601105243205623,5.041366384653119],[-75.601606092610652,5.041355042722966],[-75.601842504547875,5.041259571264119],[-75.602625304795978,5.040627211424041]]}},
{"type":"Feature","properties":{"ESRI_OID":1365,"gid":866,"objectid":1845,"id_via":1845,"coddep":"17","codvia":1845,"nombre":"Carreteable","tipo":"V2","estado":null,"condicion":null,"length":2672.3834187700004,"shape_leng":2672.3834187700004},"geometry":{"type":"LineString","coordinates":[[-75.59378033321866,5.028968380005794],[-75.594151434916057,5.029133060081844],[-75.59422499267923,5.029025540951023],[-75.59450084078378,5.028929981507264],[-75.595147894068333,5.028800224591075],[-75.595271868761841,5.028811236144668],[-75.595378615747464,5.028925115962734],[-75.595558984288473,5.028959160910974],[-75.595648681600764,5.029009236423208],[-75.595761216911924,5.029189771524677],[-75.595811805421249,5.029382315488547],[-75.595772334278067,5.030342325572165],[-75.595665364645484,5.030619419627314],[-75.595653976291118,5.030810977790121],[-75.595518718704511,5.031280799332096],[-75.595158249221882,5.032059629551728],[-75.595186339728926,5.032268610596557],[-75.595299201292761,5.03258982744037],[-75.595659151589174,5.03329070749309],[-75.595788050171549,5.034211341263849],[-75.596187636532676,5.035239822441274],[-75.596412384162747,5.036432557493389],[-75.596401309023818,5.037002093101991],[-75.596356041800206,5.037404471400905],[-75.596230257047239,5.037585561338166],[-75.596182007139873,5.038402649210727],[-75.596201259770453,5.038687359244119],[-75.596240339440982,5.038775406565716],[-75.596328299651276,5.038804580976677],[-75.596339562629666,5.038802294758781],[-75.596409037845532,5.038634895785796],[-75.59648716869502,5.038312669421074],[-75.596550260732684,5.03757916553577],[-75.596892693759628,5.036797551348934],[-75.597270143763609,5.03653903599352],[-75.597426438680628,5.037366946296181],[-75.597504794640585,5.03762778871958],[-75.597494551354302,5.038069634464634],[-75.597711579815112,5.038361792704785],[-75.597880816478906,5.039181762503884],[-75.597880895157374,5.039215661687751],[-75.597993134562486,5.039267378742745],[-75.598175168725291,5.039289553395512],[-75.598519897412558,5.039254849194379],[-75.598754295420818,5.039505157058636],[-75.598924589847655,5.039566908133796],[-75.599174820386821,5.039599092983022],[-75.599343555884928,5.039717346477967],[-75.599483917207834,5.03999047320814],[-75.599404171281492,5.040344342696964],[-75.599215203734218,5.04049055144004],[-75.599205482425958,5.04067137066478],[-75.599505435432349,5.040764457880521],[-75.599595004767068,5.040758598645242],[-75.599740762920973,5.040687069338816],[-75.600026881431248,5.040645721273951],[-75.600261355197688,5.040685852244877],[-75.600649018093321,5.040942580510442],[-75.601144822122095,5.041184365717829],[-75.60156961607909,5.04117546176837],[-75.601750300212785,5.041101590349152],[-75.602512293713502,5.040486229017545]]}},
{"type":"Feature","properties":{"ESRI_OID":2222,"gid":370,"objectid":370,"id_via":370,"coddep":"17","codvia":370,"nombre":"Carretera","tipo":"V1","estado":null,"condicion":null,"length":5624.6860402899993,"shape_leng":5624.6860402899993},"geometry":{"type":"LineString","coordinates":[[-75.587429400910608,5.026917490118753],[-75.587369803602115,5.026971302196066],[-75.587268579771262,5.027298666829705],[-75.58707168603388,5.027428505325918],[-75.586987172906504,5.027427570726899],[-75.586796036244266,5.027365863400035],[-75.586677721497992,5.027366136875343],[-75.586570764411476,5.027405368566421],[-75.586367788557382,5.027585505299429],[-75.586137401817879,5.027851019232202],[-75.585866761317419,5.028252224396341],[-75.58582207707623,5.028421260465536],[-75.585821888825905,5.028584543800693],[-75.585928576209639,5.0289182079707],[-75.585934521860878,5.029053792478419],[-75.58589470315458,5.029133548468121],[-75.585123609906702,5.029471500731896],[-75.584673622163749,5.029793456034031],[-75.58451599686363,5.029849754339688],[-75.584104797147333,5.029888558268542],[-75.5838853337833,5.029759116429779],[-75.583547863723211,5.02976441521318],[-75.583429637816735,5.029803672561716],[-75.583260375218885,5.029944746453711],[-75.583024441710663,5.030249257233053],[-75.582832545791192,5.030593780938122],[-75.58272016110223,5.030723423698199],[-75.582376558956383,5.030757550842183],[-75.582078423040215,5.030717558810459],[-75.581819518424652,5.030587077193273],[-75.581735324618919,5.030479922469761],[-75.581307598785045,5.03019163144458],[-75.580941647072336,5.030061396029153],[-75.580581724718897,5.029857697250519],[-75.580486225531899,5.029734183483574],[-75.580384727492117,5.029451355165431],[-75.580018938751522,5.029145970470642],[-75.579736525467027,5.028836438636563],[-75.579629710264285,5.02943049346674],[-75.579480626171545,5.029772658135006],[-75.57928639693651,5.0300832870172],[-75.579040841813907,5.030369739233807],[-75.57851071109684,5.031125791577046],[-75.578362201261058,5.031473039890699],[-75.578346776178094,5.031872526556538],[-75.578379716934904,5.032726157585445],[-75.57843781312252,5.033000611257875],[-75.578412224949815,5.033390516387253],[-75.578267449637949,5.033892564746645],[-75.577825435556377,5.034255178437875],[-75.577826686479924,5.034309415050078],[-75.577878104332186,5.034373706135126],[-75.578379685688716,5.034435831199892],[-75.578709075171901,5.034591011404501],[-75.578835773611587,5.034806547557785],[-75.578835596412844,5.035221253871859],[-75.578721757416886,5.035700631303963],[-75.578707249138319,5.036008021691146],[-75.578802226834654,5.036395389117502],[-75.578789086220098,5.036807865303325],[-75.578495395530084,5.037726092775713],[-75.578443946198192,5.038386124831361],[-75.578241237492932,5.03893124648835],[-75.578159755340252,5.039270430904587],[-75.577998722731778,5.039562339041311],[-75.577745873801533,5.03986349857552],[-75.577721264638328,5.039942654504721],[-75.577461866654829,5.040336488220695],[-75.577326210635604,5.040638507809485],[-75.577310148428438,5.040759453670776],[-75.577390698852071,5.041489241305482],[-75.577293877171542,5.041773091668052],[-75.577178697331064,5.041913475661789],[-75.576887309710528,5.042116414896445],[-75.576548506717714,5.042281043576866],[-75.575962427995719,5.042967166750412],[-75.575767317038483,5.04314050434516],[-75.575602703078076,5.043345411448749],[-75.575541083747581,5.043501491921293],[-75.575541117368459,5.043516181717314],[-75.575839148613511,5.043507585794024],[-75.576025516539943,5.043452917232669],[-75.576543719985253,5.043143236796287],[-75.576885105756787,5.04312211071885],[-75.577074017016713,5.043193994878627],[-75.577336576787189,5.043441987614973],[-75.577390074266418,5.04367577212958],[-75.577354026835408,5.043926712828174],[-75.577237524213729,5.044227558471972],[-75.577233133378357,5.044278418112272],[-75.577270934349542,5.044300930787096],[-75.577300237399598,5.044303123235146],[-75.577383558899797,5.044274681476062],[-75.577764767929438,5.043929156114432],[-75.578022151132757,5.043639285581298],[-75.578602858775099,5.042823224703513],[-75.578940218157641,5.042520739748523],[-75.57917540572744,5.042380078725587],[-75.580379115245577,5.040767068444625],[-75.580651093751925,5.04020935677754],[-75.580838968701102,5.040075584611386],[-75.58106242436439,5.039979019868605],[-75.581300770025734,5.039987509522106],[-75.581824627068997,5.040179527637794],[-75.581901822827049,5.040182739296617],[-75.582278553283388,5.040097119994006],[-75.582486809356098,5.040006239871334],[-75.582721634169715,5.039953717848251],[-75.583495798013914,5.039965488157902],[-75.583856090599141,5.040082173559641],[-75.584122005029258,5.040318855561433],[-75.584407874853113,5.04114760378608],[-75.584524605989117,5.041192533077359],[-75.585081536722811,5.041311022390294],[-75.585572504951244,5.041655660976817],[-75.585889839875222,5.041956631911291],[-75.58603562307151,5.042139351710974],[-75.586122516791818,5.042194519626716],[-75.586222306607411,5.042222538005118],[-75.586377462292774,5.042315967165649],[-75.586671633422682,5.042344664908143],[-75.586939699144068,5.042536140798978],[-75.587263344697405,5.042885685431302],[-75.587308355489441,5.042858461414522],[-75.587550131639773,5.042888410178338],[-75.587740837610482,5.043005486102656],[-75.587985516742677,5.043316793937414],[-75.588075063409789,5.043544842865858],[-75.588203540722631,5.04428468404242],[-75.588329790729858,5.044547677154481],[-75.588779263074642,5.044976027171111],[-75.588814213616402,5.045227932295594],[-75.588776475381749,5.045476616303863],[-75.588713049201857,5.045580722104521],[-75.588681889264123,5.045750291999795],[-75.58866642453026,5.046128872380273],[-75.588725185030299,5.046444001255427],[-75.588863400865677,5.046764595411271],[-75.588497316801707,5.047069411478188],[-75.588244137947598,5.047225937329784],[-75.58783543402194,5.047373784428792],[-75.587297030899478,5.047473343110689],[-75.587253089299111,5.047475705084756]]}},
{"type":"Feature","properties":{"ESRI_OID":2266,"gid":431,"objectid":431,"id_via":431,"coddep":"17","codvia":431,"nombre":"Carretera","tipo":"V1","estado":null,"condicion":null,"length":5317.7079154700004,"shape_leng":5317.7079154700004},"geometry":{"type":"LineString","coordinates":[[-75.575360820258467,5.043515466658894],[-75.575360709064753,5.043466877329577],[-75.575445294202595,5.043251984515501],[-75.575636316534442,5.043015376940264],[-75.575833676016572,5.042839774229478],[-75.576436050003124,5.042134403820164],[-75.576796242186646,5.04196068604086],[-75.577055000693051,5.041779291807162],[-75.577134225299432,5.04168419022458],[-75.577206977946162,5.041469324661097],[-75.577128722801092,5.040757611489111],[-75.577151434789755,5.040588060760207],[-75.577303344602882,5.040248714105881],[-75.577556568388388,5.039865064557508],[-75.577585095611241,5.039774599712801],[-75.577849179291846,5.03945872449273],[-75.577990016990796,5.039205282526773],[-75.578131215305461,5.038617362960406],[-75.57815942490231,5.038634247820985],[-75.57826637722755,5.038345854262289],[-75.578317273689294,5.037690343397363],[-75.57860984817691,5.036776638461847],[-75.578621415125085,5.036415015371237],[-75.578525868933568,5.036025389218975],[-75.578542530040181,5.035673924283559],[-75.578655255289831,5.035200199354132],[-75.578655593008662,5.034855551950918],[-75.578582064866779,5.03473142244993],[-75.578328818693393,5.034612226585369],[-75.57778327812234,5.034544552721323],[-75.577648232272367,5.034374235026759],[-75.577642696248063,5.034170849657134],[-75.57811001739303,5.033787838036431],[-75.578233551289955,5.033359287857811],[-75.578256423356862,5.033013458532526],[-75.578200040736377,5.032749170782504],[-75.57816648509629,5.03187294130475],[-75.578183507473838,5.031432771322185],[-75.578352753696066,5.031037450783862],[-75.578898605730132,5.030257632596639],[-75.579140792091394,5.029976273127983],[-75.579244081621383,5.02981105709281],[-75.579197282593427,5.029795344933178],[-75.578735797441894,5.02977267685027],[-75.578223487962347,5.029698710785019],[-75.578065913333447,5.029777607357003],[-75.577649436064362,5.029726585264527],[-75.577199295019312,5.029737224686865],[-75.576771218421726,5.029787927763309],[-75.576365781235026,5.029883778194706],[-75.576067788478781,5.029906497319428],[-75.575775246595356,5.029848974469603],[-75.575020803725891,5.030080659172349],[-75.574852023387237,5.03018726559995],[-75.574508667145224,5.030576770293049],[-75.57403545433931,5.030847358670348],[-75.573618929076417,5.031022897539555],[-75.573281099368373,5.031118591381541],[-75.572633906162579,5.03143986248884],[-75.572504643545429,5.031581407717098],[-75.572110832529631,5.031835428294572],[-75.571131096307298,5.032348428881745],[-75.57079338098201,5.032494971160713],[-75.570556875202271,5.032551447198045],[-75.570191293935935,5.032584488686731],[-75.569926375346171,5.032782278720388],[-75.56975774875275,5.032957248524859],[-75.569470214944985,5.033120625388513],[-75.569200325980319,5.03311502773552],[-75.569088039752174,5.033041834931179],[-75.568637817485495,5.033018569501786],[-75.568209672284269,5.033041018064362],[-75.567821606344538,5.033097274611858],[-75.567196380323907,5.033418491455921],[-75.566853335700102,5.033452044778947],[-75.566751678514308,5.033593526297635],[-75.566515285751464,5.033700285608492],[-75.566194765501763,5.033976736201559],[-75.565665359859153,5.034564412236204],[-75.56548523184496,5.034885742079648],[-75.565339039416799,5.035264624260509],[-75.565118820264061,5.036043693895093],[-75.565141372139138,5.03679508961523],[-75.565248283080265,5.03747849297788],[-75.565214120783139,5.037817569676079],[-75.56507901681573,5.038117326986034],[-75.564926866542137,5.038353843450903],[-75.564864788801728,5.038557384414418],[-75.564876017080309,5.038787877931772],[-75.564971764440301,5.039269037535907],[-75.5649603944765,5.039472462735486],[-75.564459423203189,5.040426193094062],[-75.564431176196152,5.040640956823057],[-75.564284419357946,5.041019840550776],[-75.564048485329877,5.041329998110468],[-75.563862413478688,5.041515742241462],[-75.563637225148909,5.041843955170122],[-75.56363121730142,5.041927588613388],[-75.563704669929521,5.042018950658777],[-75.563761063442357,5.042041421857642],[-75.564014017878421,5.042279273576693],[-75.564086994417437,5.042409056505647],[-75.564064584323134,5.042713076632685],[-75.563963373513104,5.04280370743075],[-75.563434228038545,5.043012834789139],[-75.563276777354702,5.043148793753903],[-75.563231419635187,5.043272066900456],[-75.56322007506509,5.04348679213315],[-75.563293346666711,5.043746524075037],[-75.563709772833249,5.044266501617796],[-75.563748921114069,5.044386191816533],[-75.563850565874418,5.044486529337563],[-75.564548096174988,5.045481592140682],[-75.56463770804541,5.045741286349185],[-75.564772591021139,5.046335355744984],[-75.564791777535575,5.046596340871433],[-75.564785839343472,5.046710484006562],[-75.564734212265265,5.046802131691348],[-75.564694918888293,5.046866631281326],[-75.56460432546838,5.046918818202363],[-75.564539531464206,5.046918966330736],[-75.56440932094381,5.046893274087418],[-75.564344408782247,5.046841442656786],[-75.564252953963347,5.046762551981362],[-75.564200882486134,5.046658711368009],[-75.564145474130811,5.046574088302412],[-75.563931649238143,5.046200548229106],[-75.563655876072801,5.045839579476155],[-75.563526733582009,5.045787894627337],[-75.563526490986263,5.045929144717751],[-75.563594131568053,5.046190019350915],[-75.563767597584075,5.046655181491821]]}},
{"type":"Feature","properties":{"ESRI_OID":2272,"gid":441,"objectid":441,"id_via":441,"coddep":"17","codvia":441,"nombre":"Carretera","tipo":"V1","estado":null,"condicion":null,"length":1329.16800369,"shape_leng":1329.16800369},"geometry":{"type":"LineString","coordinates":[[-75.563595176354326,5.046649925433229],[-75.563421846482086,5.046244652704454],[-75.563346246134373,5.045952156315501],[-75.563346397804935,5.045522757342635],[-75.563768783168399,5.045689032067824],[-75.564082421349809,5.046100764074276],[-75.564353944285216,5.046574741841406],[-75.564408848313846,5.046685355937875],[-75.564460801661639,5.04673721698788],[-75.564526215590178,5.046761927362159],[-75.564578022523435,5.046749378976282],[-75.564603852773914,5.046710900071428],[-75.56461669082988,5.046657760923727],[-75.564610915281108,5.046595624362681],[-75.56459404418969,5.046361753814494],[-75.56446428611217,5.045791402535513],[-75.564386017261583,5.045564452243971],[-75.563711664417852,5.044603236178105],[-75.563591380458661,5.044482601265098],[-75.563548833686539,5.044355008836337],[-75.563129582726944,5.043831647628603],[-75.563038696285901,5.043506416051462],[-75.563052729807353,5.043235184837282],[-75.563123282608146,5.043041794406031],[-75.563339777313217,5.042854850872603],[-75.563867801013302,5.042647986172534],[-75.563890291736755,5.042627594890811],[-75.563903411080815,5.042450155532947],[-75.563870601739836,5.042392600632068],[-75.563662252546123,5.042196456905158],[-75.563594016891912,5.042169492745164],[-75.563447111635,5.041986768616392],[-75.563460733015518,5.041782208172332],[-75.563723547582754,5.041399669584204],[-75.563912428873778,5.041210529089083],[-75.564125892806558,5.04092980276548],[-75.564255286308196,5.040596158532481],[-75.564284637132502,5.040371222310053],[-75.564782804411536,5.039423148403664],[-75.564790371598718,5.039281881645036]]}},
{"type":"Feature","properties":{"ESRI_OID":2277,"gid":446,"objectid":446,"id_via":446,"coddep":"17","codvia":446,"nombre":"Carretera","tipo":"V1","estado":null,"condicion":null,"length":3029.4778110500001,"shape_leng":3029.4778110500001},"geometry":{"type":"LineString","coordinates":[[-75.58577669364476,5.046645201789365],[-75.585351510753952,5.046243912812072],[-75.585210356399031,5.045380931249869],[-75.585142887672859,5.045198029971643],[-75.584782934139156,5.044985296654428],[-75.584546879683757,5.044993753312618],[-75.584032393095669,5.045202862091646],[-75.583799627941417,5.045171761378551],[-75.583411522789859,5.045212209239227],[-75.58286667758621,5.045205560101683],[-75.582769831747612,5.045232903830302],[-75.582740484517075,5.04521150197847],[-75.58270652335014,5.045143781349861],[-75.582723385673376,5.044636378383065],[-75.582662130913278,5.04446024216027],[-75.582483028032414,5.044243698941842],[-75.582268609148556,5.044105206382571],[-75.581726700997677,5.043905321427826],[-75.581009811435209,5.043320514430527],[-75.580573253382724,5.042870657575612],[-75.580565308442928,5.042845816190535],[-75.580600225218944,5.042593748311019],[-75.580962223492449,5.041980459153669],[-75.580837215228669,5.041766050162235],[-75.580700029788744,5.041646588198759],[-75.580495335471269,5.041571351545733],[-75.580167029066473,5.041644428511682],[-75.579890722911031,5.041789704587626],[-75.579742273587541,5.041917735771023],[-75.580533709278512,5.0408616306403],[-75.580792788729823,5.040329938427005],[-75.580927788148372,5.040233577865202],[-75.581096646960006,5.040160868859852],[-75.581265687329804,5.04016725852328],[-75.581788981114954,5.04035927792767],[-75.58191857977495,5.040364628514636],[-75.582334728660982,5.040269878201479],[-75.582543548184134,5.040178996745202],[-75.582740078964633,5.040134473092958],[-75.58346635270884,5.040146354050137],[-75.583764620330214,5.040241713151366],[-75.583967304916854,5.040423172125163],[-75.584265089593771,5.041288052437991],[-75.584473735609464,5.041366668612043],[-75.585008119452326,5.041480690185337],[-75.585458454171956,5.041796043292836],[-75.585756591336207,5.042078978990054],[-75.585914242739449,5.042277491114205],[-75.586049094588162,5.042361927526199],[-75.586150574681596,5.042389941992136],[-75.586319270639422,5.042491249672556],[-75.586606120044465,5.042521094375853],[-75.586820006649631,5.042673146437158],[-75.587186015366939,5.043068922234903],[-75.587276214204508,5.043091312719929],[-75.587349354150561,5.043045943705643],[-75.587489684053111,5.043062567958293],[-75.587619455020672,5.04314249578344],[-75.587827407769183,5.043408689527457],[-75.587900516218127,5.043593837247506],[-75.588030133246534,5.044339325787315],[-75.588181862238457,5.044656499021825],[-75.588609311715004,5.045063430604936],[-75.588631663438051,5.045227226303999],[-75.588603923126186,5.04541373800887],[-75.588541618534833,5.045515581227287],[-75.588502111656496,5.045730369854649],[-75.588485595664864,5.046141722226498],[-75.588552914399628,5.046503160587257],[-75.588644115721891,5.046715385616118],[-75.58839218133167,5.046922757845381],[-75.58816544147588,5.04706114250184],[-75.587788265667044,5.047198746462094],[-75.587275203546312,5.047292596319925],[-75.587084798679626,5.047306598091988],[-75.586761066653395,5.04716497136707],[-75.586577707266741,5.047058048292291],[-75.586209462586666,5.046915394507761],[-75.585828640365307,5.04669367068857]]}},
{"type":"Feature","properties":{"ESRI_OID":2279,"gid":448,"objectid":448,"id_via":448,"coddep":"17","codvia":448,"nombre":"Carretera","tipo":"V1","estado":null,"condicion":null,"length":1997.28977891,"shape_leng":1997.28977891},"geometry":{"type":"LineString","coordinates":[[-75.587054793878238,5.047488595196531],[-75.587053103615816,5.047488599119731],[-75.586679177498553,5.047325619173339],[-75.586499203803996,5.047220948199278],[-75.586131522445996,5.047078293086384],[-75.585720799750419,5.046839688799995],[-75.585610129619781,5.046735986782025],[-75.585181534949129,5.046321145768113],[-75.585035239686263,5.045427666416455],[-75.584996116399864,5.045320408454725],[-75.584737155437978,5.045168460347796],[-75.584585045206268,5.04517446261137],[-75.584055920007856,5.045388125297218],[-75.583797229670594,5.045353694673882],[-75.583419826791726,5.045392987808429],[-75.582890757200715,5.045386302222944],[-75.582733103559889,5.045431866426186],[-75.582598212192678,5.045330479685281],[-75.582525193101048,5.04518375032717],[-75.582542026970216,5.044663917536333],[-75.582502891138049,5.044551009382652],[-75.582362207313082,5.044380706730212],[-75.58218785091438,5.04426811120788],[-75.581635793280299,5.04406485971501],[-75.580887855814581,5.043454134647636],[-75.580459769740742,5.043013298055415],[-75.580429804775207,5.042968167728664],[-75.580381104315379,5.042860931324826],[-75.580426552301944,5.042533129939208],[-75.580753192944499,5.041979811820232],[-75.580696630656988,5.041883893459192],[-75.580606863070244,5.041803871572805],[-75.580482807444639,5.041758958437506],[-75.580229399195218,5.04181604273522],[-75.579993046400233,5.041939756883682],[-75.579402068432202,5.042453005106309],[-75.579047604630048,5.042667390578698],[-75.578737793188822,5.042943822326776],[-75.578163265170858,5.043751959133968],[-75.577892957029746,5.044056549371381],[-75.577476327647588,5.044434926138479],[-75.577324884026538,5.044486124704794],[-75.577217818545535,5.044479591513947],[-75.577043488486439,5.044378294188534],[-75.577059948346516,5.044185028063199],[-75.577178696970975,5.043880787285551],[-75.577206414865898,5.043682975271781],[-75.577172836498463,5.043536154015513],[-75.576975773204296,5.043349029765257],[-75.576857914916317,5.043304101675288],[-75.576598780593145,5.043321648372571],[-75.576098017227835,5.043619988831444],[-75.575867170100054,5.043688319703422],[-75.575462094049641,5.043699422014374],[-75.575455314899926,5.04369152768431]]}},
{"type":"Feature","properties":{"ESRI_OID":2645,"gid":860,"objectid":1839,"id_via":1839,"coddep":"17","codvia":1839,"nombre":"Carreteable","tipo":"V2","estado":null,"condicion":null,"length":3527.0602252399999,"shape_leng":3527.0602252399999},"geometry":{"type":"LineString","coordinates":[[-75.587429400910608,5.026917490118753],[-75.587561161013141,5.027129057555405],[-75.587634450712173,5.027394434438301],[-75.58765712644302,5.027700042815359],[-75.58761193127188,5.027891679734387],[-75.58745439314805,5.028230474502525],[-75.587296424808386,5.028382257803147],[-75.586896898766469,5.028596748831191],[-75.5867559245644,5.028788607234936],[-75.586755791133825,5.028975620057124],[-75.586941619070302,5.029178587639977],[-75.587200731382836,5.029399465383635],[-75.587290416774209,5.029444457317238],[-75.587386507589144,5.02957983318716],[-75.587712613437972,5.029777955948502],[-75.587881411000353,5.029925028286064],[-75.588010835267866,5.03010044129898],[-75.588123487496773,5.030332392301506],[-75.588280808610108,5.031123016994249],[-75.588342951137292,5.03119575707385],[-75.588702889802818,5.031405665486318],[-75.588894475341704,5.031417086522142],[-75.589102270789354,5.03137253575018],[-75.589395323787571,5.031162809760004],[-75.589468553563336,5.031156990147804],[-75.589552593514767,5.031196909805958],[-75.589755353753432,5.031412266700709],[-75.589885002305309,5.031440215757466],[-75.590019605594719,5.031417869045141],[-75.590172132351498,5.031349716434518],[-75.590391394322864,5.031146941073011],[-75.590492794345849,5.031141056028108],[-75.5906164290802,5.031248682687122],[-75.590638962204679,5.031491576752773],[-75.590565662876699,5.031711528431647],[-75.59047028772784,5.031886896987682],[-75.5904079536636,5.032219821544032],[-75.590419127497398,5.032423192566011],[-75.590615937293947,5.032745346169964],[-75.590858162999012,5.032971910733146],[-75.59107793094995,5.032988350506245],[-75.591336460536525,5.03295554599653],[-75.591544646002916,5.033079925810769],[-75.591826440906559,5.03311882096595],[-75.591904938447001,5.033198302445271],[-75.592259492502947,5.033271492888641],[-75.592603042954835,5.033215325758574],[-75.592653817461539,5.033244587329198],[-75.592664678826679,5.033312361003897],[-75.592450994333475,5.033734340657781],[-75.592439319849959,5.034046242781543],[-75.592259483528053,5.03424327742193],[-75.592202970855766,5.034412906001157],[-75.592225637701432,5.034469352444312],[-75.592309676895354,5.034508706576013],[-75.593210428863358,5.034690800269694],[-75.593581517208094,5.034848134870451],[-75.59412769876441,5.035193768740483],[-75.594189567759415,5.035391371474415],[-75.594397621122397,5.035701632126551],[-75.594583390547157,5.035877476808844],[-75.594859279340156,5.036041811821851],[-75.594932233756765,5.03616028994646],[-75.594977135474153,5.036329682489027],[-75.595208213466918,5.036607119632502],[-75.595776210505576,5.036883771814212],[-75.595956477428885,5.03711612770505],[-75.596018203268883,5.037251581471537],[-75.596057549863517,5.037454886170143],[-75.596001152333542,5.038403070753982],[-75.596023884879926,5.038730711941005],[-75.596108281014182,5.038923741771488],[-75.596316336870842,5.038991055522784],[-75.596468392350104,5.03896245150343],[-75.596581011735324,5.038692123777393],[-75.596665274505142,5.038341633628697],[-75.596727276188318,5.037623952041641],[-75.597037206796443,5.036918122223038],[-75.597144086831491,5.036845554331609],[-75.597250754532169,5.037410295254696],[-75.597323997818236,5.037653069975192],[-75.597312700983352,5.038126557630122],[-75.597543295821197,5.038437893942935],[-75.597700566967561,5.039200262836148],[-75.597700871158878,5.039331339691139],[-75.59794283674205,5.03944377284921],[-75.598173337419666,5.039471484250886],[-75.598449345815894,5.039443720355243],[-75.598684770994751,5.039651086650137],[-75.598724857154181,5.03968715234252],[-75.598882746091761,5.039744412474445],[-75.599107612709105,5.039772136660239],[-75.59920355009028,5.039839711225879],[-75.599293539385712,5.040014647594034],[-75.599242794060387,5.040240761795197],[-75.599039770074896,5.040399433094631],[-75.599023010521236,5.040703436407684],[-75.599062711896167,5.040816341473588],[-75.599484451238794,5.040947563365469],[-75.59964218030359,5.040935894918248],[-75.599794133385458,5.040863221131759],[-75.600025053379682,5.040828781944548],[-75.600193581777049,5.040857767321867],[-75.60055980359418,5.041100986024627],[-75.601105243205623,5.041366384653119],[-75.601606092610652,5.041355042722966],[-75.601842504547875,5.041259571264119],[-75.602625304795978,5.040627211424041]]}},
{"type":"Feature","properties":{"ESRI_OID":2652,"gid":866,"objectid":1845,"id_via":1845,"coddep":"17","codvia":1845,"nombre":"Carreteable","tipo":"V2","estado":null,"condicion":null,"length":2672.3834187700004,"shape_leng":2672.3834187700004},"geometry":{"type":"LineString","coordinates":[[-75.59378033321866,5.028968380005794],[-75.594151434916057,5.029133060081844],[-75.59422499267923,5.029025540951023],[-75.59450084078378,5.028929981507264],[-75.595147894068333,5.028800224591075],[-75.595271868761841,5.028811236144668],[-75.595378615747464,5.028925115962734],[-75.595558984288473,5.028959160910974],[-75.595648681600764,5.029009236423208],[-75.595761216911924,5.029189771524677],[-75.595811805421249,5.029382315488547],[-75.595772334278067,5.030342325572165],[-75.595665364645484,5.030619419627314],[-75.595653976291118,5.030810977790121],[-75.595518718704511,5.031280799332096],[-75.595158249221882,5.032059629551728],[-75.595186339728926,5.032268610596557],[-75.595299201292761,5.03258982744037],[-75.595659151589174,5.03329070749309],[-75.595788050171549,5.034211341263849],[-75.596187636532676,5.035239822441274],[-75.596412384162747,5.036432557493389],[-75.596401309023818,5.037002093101991],[-75.596356041800206,5.037404471400905],[-75.596230257047239,5.037585561338166],[-75.596182007139873,5.038402649210727],[-75.596201259770453,5.038687359244119],[-75.596240339440982,5.038775406565716],[-75.596328299651276,5.038804580976677],[-75.596339562629666,5.038802294758781],[-75.596409037845532,5.038634895785796],[-75.59648716869502,5.038312669421074],[-75.596550260732684,5.03757916553577],[-75.596892693759628,5.036797551348934],[-75.597270143763609,5.03653903599352],[-75.597426438680628,5.037366946296181],[-75.597504794640585,5.03762778871958],[-75.597494551354302,5.038069634464634],[-75.597711579815112,5.038361792704785],[-75.597880816478906,5.039181762503884],[-75.597880895157374,5.039215661687751],[-75.597993134562486,5.039267378742745],[-75.598175168725291,5.039289553395512],[-75.598519897412558,5.039254849194379],[-75.598754295420818,5.039505157058636],[-75.598924589847655,5.039566908133796],[-75.599174820386821,5.039599092983022],[-75.599343555884928,5.039717346477967],[-75.599483917207834,5.03999047320814],[-75.599404171281492,5.040344342696964],[-75.599215203734218,5.04049055144004],[-75.599205482425958,5.04067137066478],[-75.599505435432349,5.040764457880521],[-75.599595004767068,5.040758598645242],[-75.599740762920973,5.040687069338816],[-75.600026881431248,5.040645721273951],[-75.600261355197688,5.040685852244877],[-75.600649018093321,5.040942580510442],[-75.601144822122095,5.041184365717829],[-75.60156961607909,5.04117546176837],[-75.601750300212785,5.041101590349152],[-75.602512293713502,5.040486229017545]]}},
{"type":"Feature","properties":{"ESRI_OID":6891,"gid":5951,"objectid":5721,"id_via":5721,"coddep":"17","codvia":5721,"nombre":"Sendero","tipo":"V3","estado":null,"condicion":null,"length":1941.4326953300001,"shape_leng":1941.43272112},"geometry":{"type":"LineString","coordinates":[[-75.578655637591183,5.035121099248608],[-75.578227454528871,5.035126604963981],[-75.578165910664566,5.035069117178204],[-75.578030733061809,5.035087508136241],[-75.577737813145617,5.035358249704423],[-75.57757491211413,5.035572192565013],[-75.577338312648664,5.036080102275118],[-75.577219851439295,5.036509770894332],[-75.577095879892056,5.036747353966835],[-75.576707181158341,5.037265783550354],[-75.576364128797024,5.037542290216622],[-75.576054299620608,5.037564472590698],[-75.575879958894177,5.037457524408737],[-75.575576120586803,5.03738929353813],[-75.574945566074547,5.037350063087899],[-75.574613866801158,5.037417494652614],[-75.573972131465879,5.037416708636716],[-75.57384825745487,5.037450892822508],[-75.573533129082776,5.037619985065444],[-75.573105005244386,5.037652607564195],[-75.572846294171839,5.037608001613632],[-75.572626942302847,5.037528275497168],[-75.572547834630825,5.03742788770575],[-75.57230608796138,5.037410362393734],[-75.572069553762248,5.037454974605692],[-75.571872525632017,5.037528875948789],[-75.571506853841584,5.037770402796085],[-75.571101393633043,5.038353278511734],[-75.570836704117625,5.038652203322911],[-75.570651082834047,5.038787097910824],[-75.570234511686053,5.038945121540865],[-75.570121635038646,5.038860630676504],[-75.569879913367231,5.038854404474322],[-75.569344908262494,5.038961849185029],[-75.569192924325648,5.039023216855295],[-75.568923021267366,5.039260003498417],[-75.568669397905794,5.039718231619657],[-75.568641329799533,5.040010964289816],[-75.568675266136964,5.040315984940142],[-75.569169623351755,5.041903623892111],[-75.569073747703968,5.042604439560902],[-75.568848408216638,5.043112322972743],[-75.568398343064032,5.043903219660505],[-75.568223414894391,5.044281038327326],[-75.568141961097311,5.044373849151444]]}},
{"type":"Feature","properties":{"ESRI_OID":6896,"gid":5965,"objectid":5735,"id_via":5735,"coddep":"17","codvia":5735,"nombre":"Sendero","tipo":"V3","estado":null,"condicion":null,"length":1283.1847072600001,"shape_leng":1283.1847072600001},"geometry":{"type":"LineString","coordinates":[[-75.592720523232472,5.036023057419716],[-75.592506579843857,5.036333169719449],[-75.592494675666785,5.037276732171005],[-75.592455746322983,5.037497169118757],[-75.592196324757339,5.03763224002443],[-75.591707005188198,5.0377565453141],[-75.591459349659871,5.037863339101682],[-75.590086107083778,5.038020206014851],[-75.589882924051977,5.038111076302949],[-75.589731178364048,5.038274146084078],[-75.589601629965543,5.038534342891349],[-75.589573652250635,5.038862102958545],[-75.589652224820583,5.039217865284086],[-75.589702590300377,5.039313796935426],[-75.590175502792619,5.039647173869302],[-75.590693400026623,5.039942026394089],[-75.591334721756454,5.040252411245326],[-75.59239837262119,5.040705320695959],[-75.592775272729767,5.040694274006258],[-75.592955721921385,5.040761653000476],[-75.593040831348759,5.040776144695517],[-75.593124237460245,5.040784990435872],[-75.59343428747151,5.040858847521136],[-75.593478914846344,5.04090959278415],[-75.593439825451199,5.041304047203837],[-75.593467706490728,5.041665576254337],[-75.593932638119185,5.04268712627499]]}},
{"type":"Feature","properties":{"ESRI_OID":6902,"gid":5976,"objectid":5746,"id_via":5746,"coddep":"17","codvia":5746,"nombre":"Sendero","tipo":"V3","estado":null,"condicion":null,"length":809.91472309200003,"shape_leng":809.91472309200003},"geometry":{"type":"LineString","coordinates":[[-75.584388936468159,5.036833361535034],[-75.584671511644345,5.037700537210633],[-75.585492860514933,5.038876081674541],[-75.585869791867253,5.039367882575711],[-75.586162259901826,5.04012542518348],[-75.586353396935138,5.040430078320623],[-75.586375814828813,5.041356613916479],[-75.586488364223896,5.041542800583223],[-75.587287416812103,5.042085600731451],[-75.587394455441569,5.042080832567058],[-75.587512561234362,5.042233106517515],[-75.587630703192744,5.042645276688816],[-75.587696828535172,5.042978468588484]]}},
{"type":"Feature","properties":{"ESRI_OID":6916,"gid":6008,"objectid":5778,"id_via":5778,"coddep":"17","codvia":5778,"nombre":"Sendero","tipo":"V3","estado":null,"condicion":null,"length":527.68348649699999,"shape_leng":527.68348649699999},"geometry":{"type":"LineString","coordinates":[[-75.581789103321114,5.040167179826622],[-75.581969142215044,5.039810818047301],[-75.58212711414744,5.039659034894144],[-75.582335359750289,5.039563634930631],[-75.582616927124761,5.039501965109268],[-75.582819322963488,5.039557996755521],[-75.583089673873047,5.039518952393998],[-75.58332594448305,5.039360208153784],[-75.583601661453159,5.038959555599651],[-75.583697493206685,5.03849151973912],[-75.583714618222558,5.037853037919163],[-75.583754010174573,5.037587400095079],[-75.583939957008042,5.037350803149892],[-75.584029960192467,5.037288445850821],[-75.584388936468159,5.036833361535034]]}},
{"type":"Feature","properties":{"ESRI_OID":6919,"gid":6022,"objectid":5792,"id_via":5792,"coddep":"17","codvia":5792,"nombre":"Sendero","tipo":"V3","estado":null,"condicion":null,"length":871.96325798399994,"shape_leng":871.96325798399994},"geometry":{"type":"LineString","coordinates":[[-75.576407395834579,5.042169499474933],[-75.576030680181631,5.042016688009518],[-75.575991302924891,5.042043898400681],[-75.575884162804613,5.042004595325179],[-75.575692781346717,5.042084135051408],[-75.575321534666571,5.042105329050408],[-75.575208812048999,5.042088638506701],[-75.575090915270764,5.042026760221725],[-75.574910517746275,5.041981975513235],[-75.574708410565606,5.041806161743948],[-75.574488571179643,5.041760337594469],[-75.572681958826223,5.041884267800682],[-75.572355417889582,5.041991236821713],[-75.571888159649916,5.041912079998531],[-75.571500009699591,5.041933310614505],[-75.571308730470506,5.042058048662795],[-75.571066627325777,5.042132053602852],[-75.570824377191585,5.04214164922152],[-75.570554408614626,5.042102718624673],[-75.570233497754103,5.041961075338812],[-75.570121029331659,5.041808784114218],[-75.569884444308727,5.041831926282478],[-75.569755138336518,5.041955391909841],[-75.569513186807896,5.042096065572638],[-75.569096472088106,5.042439408434157]]}},
{"type":"Feature","properties":{"ESRI_OID":6920,"gid":6023,"objectid":5793,"id_via":5793,"coddep":"17","codvia":5793,"nombre":"Sendero","tipo":"V3","estado":null,"condicion":null,"length":669.60978097899999,"shape_leng":669.60978097899999},"geometry":{"type":"LineString","coordinates":[[-75.579553895853309,5.042323836164919],[-75.579160051556144,5.042809509749206],[-75.578743576636427,5.043254555864725],[-75.578670066732215,5.043384674095861],[-75.578670073472338,5.043633271586285],[-75.578613466124267,5.043763350841439],[-75.578321081208585,5.044022792563274],[-75.578275781044638,5.044169795575258],[-75.578377352171287,5.044237360669135],[-75.578495184752484,5.044270988573285],[-75.578557484963,5.044412093467345],[-75.578534827945944,5.04460537379487],[-75.578410801856776,5.044819227739661],[-75.578219232566283,5.045062617173821],[-75.578129523175448,5.045253792190294],[-75.578027803082179,5.045367025671963],[-75.577774649546157,5.045535977811506],[-75.577521100842958,5.045778380097898],[-75.577403131998921,5.045931200622015],[-75.577009316950878,5.045693680662504],[-75.576862734034904,5.045653338862182],[-75.57652533492687,5.045693665956348],[-75.576132345890457,5.045816610198917]]}},
{"type":"Feature","properties":{"ESRI_OID":6922,"gid":6029,"objectid":5799,"id_via":5799,"coddep":"17","codvia":5799,"nombre":"Sendero","tipo":"V3","estado":null,"condicion":null,"length":153.80558092799998,"shape_leng":153.80558092799998},"geometry":{"type":"LineString","coordinates":[[-75.595218036089875,5.04254853308159],[-75.594885461506806,5.042723325332413],[-75.594677155211528,5.042791609679713],[-75.594339680214006,5.042796916056488],[-75.59423311363966,5.042762134962413],[-75.594125842287895,5.042666336528956],[-75.593968086137679,5.042666704043877],[-75.593932638119185,5.04268712627499]]}},
{"type":"Feature","properties":{"ESRI_OID":6923,"gid":6030,"objectid":5800,"id_via":5800,"coddep":"17","codvia":5800,"nombre":"Sendero","tipo":"V3","estado":null,"condicion":null,"length":475.70910597,"shape_leng":475.70908643199999},"geometry":{"type":"LineString","coordinates":[[-75.593932638119185,5.04268712627499],[-75.593861178659424,5.042727972045775],[-75.593467163501103,5.043377498876298],[-75.593123790517126,5.043755712259297],[-75.592994283329119,5.043789913270635],[-75.592763793822471,5.043767850303269],[-75.592319058217001,5.043438930926502],[-75.591969910230802,5.043026170060279],[-75.591914105935317,5.043015000073578],[-75.59179541991675,5.043342970948744],[-75.591666023625393,5.044155729020853],[-75.591543807969188,5.044379582567477]]}},
{"type":"Feature","properties":{"ESRI_OID":6929,"gid":6042,"objectid":5812,"id_via":5812,"coddep":"17","codvia":5812,"nombre":"Sendero","tipo":"V3","estado":null,"condicion":null,"length":506.52665853899998,"shape_leng":506.52669329099996},"geometry":{"type":"LineString","coordinates":[[-75.568141961097311,5.044373849151444],[-75.567041608539711,5.043653207313388],[-75.566827814217376,5.043540697074356],[-75.56668722375511,5.04340993935222],[-75.566315990503369,5.043190439547826],[-75.565803986645577,5.043008551154272],[-75.565663259477319,5.043065372646905],[-75.565387089962769,5.043025324103038],[-75.564807475587372,5.04284358933383],[-75.56424465231953,5.042860694905573],[-75.564030287388249,5.042744794839801]]}},
{"type":"Feature","properties":{"ESRI_OID":6930,"gid":6043,"objectid":5813,"id_via":5813,"coddep":"17","codvia":5813,"nombre":"Sendero","tipo":"V3","estado":null,"condicion":null,"length":0.0052658729059900005,"shape_leng":0.0052402293781599997},"geometry":{"type":"LineString","coordinates":[[-75.568141961097311,5.044373849151444],[-75.568141929625924,5.04437388447935]]}},
{"type":"Feature","properties":{"ESRI_OID":6931,"gid":6045,"objectid":5815,"id_via":5815,"coddep":"17","codvia":5815,"nombre":"Sendero","tipo":"V3","estado":null,"condicion":null,"length":0.021106034234000003,"shape_leng":0.021125577301699998},"geometry":{"type":"LineString","coordinates":[[-75.591543807969188,5.044379582567477],[-75.591543716406477,5.044379750017843]]}},
{"type":"Feature","properties":{"ESRI_OID":6932,"gid":6046,"objectid":5816,"id_via":5816,"coddep":"17","codvia":5816,"nombre":"Sendero","tipo":"V3","estado":null,"condicion":null,"length":1079.33102919,"shape_leng":1079.3310113499999},"geometry":{"type":"LineString","coordinates":[[-75.591543807969188,5.044379582567477],[-75.591694245469213,5.044421209116925],[-75.591800877701331,5.044484239980646],[-75.591907664241148,5.044613939389705],[-75.592397170611733,5.044811676767766],[-75.592763157190305,5.045196148270219],[-75.593094946507577,5.045411201918065],[-75.593134777791491,5.045823552259458],[-75.593033346279924,5.046059954627184],[-75.592897955177349,5.046229767215061],[-75.592357905790649,5.046590359164671],[-75.592345806293579,5.046718075256623],[-75.592362613888923,5.046920302807539],[-75.592309622971399,5.047150942456721],[-75.592296071394159,5.047381490254528],[-75.592369857712555,5.047615224566518],[-75.592522921360299,5.047777585339515],[-75.592918467663964,5.048030909516625],[-75.592975561608299,5.048112135109783],[-75.593051470423347,5.048775257121169],[-75.593177379962157,5.0493761135396],[-75.59322654930159,5.049927429631807],[-75.593172072895598,5.050246211296407],[-75.592981379298806,5.050864755576774],[-75.59295618245082,5.051175559129066],[-75.593121448703911,5.051497218316962],[-75.593199271893539,5.051770492198719],[-75.593219141399203,5.052320746562988],[-75.593184570899908,5.052476764575633]]}},
{"type":"Feature","properties":{"ESRI_OID":6935,"gid":6060,"objectid":5830,"id_via":5830,"coddep":"17","codvia":5830,"nombre":"Sendero","tipo":"V3","estado":null,"condicion":null,"length":344.014895121,"shape_leng":344.01491295699998},"geometry":{"type":"LineString","coordinates":[[-75.589640573517443,5.046125478788823],[-75.589875469574423,5.046103463073599],[-75.590123208336777,5.045787621911884],[-75.590331780999762,5.045346443723189],[-75.590719942566224,5.044843828878853],[-75.590984988138871,5.044703094653721],[-75.591192826407635,5.044675491646756],[-75.591294084675525,5.044607457167105],[-75.591142472019797,5.044341134036735],[-75.591406717202474,5.044341649349545],[-75.591543807969188,5.044379582567477]]}},
{"type":"Feature","properties":{"ESRI_OID":6936,"gid":6061,"objectid":5831,"id_via":5831,"coddep":"17","codvia":5831,"nombre":"Sendero","tipo":"V3","estado":null,"condicion":null,"length":1133.0146173099999,"shape_leng":1133.01458256},"geometry":{"type":"LineString","coordinates":[[-75.575798005090306,5.046208356813654],[-75.575241795647599,5.04616104801303],[-75.574937940067613,5.046087168121268],[-75.574752328293812,5.0459802462208],[-75.574763182971296,5.045799422746311],[-75.575117881808751,5.044947723578525],[-75.575163500483313,5.044693370742205],[-75.575135360100248,5.044460657476251],[-75.575104736233712,5.044373718685763],[-75.575071315959079,5.044295826249956],[-75.575034003461269,5.044240542576072],[-75.57484810033769,5.044252270230202],[-75.574724302787459,5.044320354488766],[-75.574521455611901,5.044314041187223],[-75.574043245339766,5.044127562534997],[-75.573339891845521,5.043793572068885],[-75.573160070105914,5.043754435618244],[-75.571640103676501,5.043821206222296],[-75.571516212819787,5.043848610435143],[-75.571178634298036,5.044057303861893],[-75.570874361902895,5.044294170564921],[-75.570542187666945,5.044402282027034],[-75.570176691441901,5.044475440000712],[-75.570081023002587,5.044525379119325],[-75.569366005343596,5.044264860198101],[-75.569084908956057,5.044288104376468],[-75.568938622493192,5.044377709130623],[-75.568702100768732,5.044429100849301],[-75.568442962254622,5.044445514499254],[-75.56817296422193,5.04439415328543],[-75.568141961097311,5.044373849151444]]}},
{"type":"Feature","properties":{"ESRI_OID":6938,"gid":6063,"objectid":5833,"id_via":5833,"coddep":"17","codvia":5833,"nombre":"Sendero","tipo":"V3","estado":null,"condicion":null,"length":103.36051963,"shape_leng":103.36051963},"geometry":{"type":"LineString","coordinates":[[-75.588979767629368,5.046651326692656],[-75.589172026239041,5.046464432697777],[-75.58923415057572,5.046284621004842],[-75.589329628905389,5.046153321077344],[-75.589640573517443,5.046125478788823]]}},
{"type":"Feature","properties":{"ESRI_OID":6939,"gid":6064,"objectid":5834,"id_via":5834,"coddep":"17","codvia":5834,"nombre":"Sendero","tipo":"V3","estado":null,"condicion":null,"length":197.07004395899997,"shape_leng":197.07004395899997},"geometry":{"type":"LineString","coordinates":[[-75.591110642966214,5.046656541629516],[-75.591068939498598,5.04665211874066],[-75.590578998954641,5.046510880793944],[-75.590359249835473,5.046504612008723],[-75.590010637091879,5.046567571737922],[-75.589892290308811,5.0465554170961],[-75.589740531983452,5.046469891218548],[-75.589640573517443,5.046125478788823]]}},
{"type":"Feature","properties":{"ESRI_OID":6945,"gid":6089,"objectid":5859,"id_via":5859,"coddep":"17","codvia":5859,"nombre":"Sendero","tipo":"V3","estado":null,"condicion":null,"length":254.63082469399998,"shape_leng":254.63082469399998},"geometry":{"type":"LineString","coordinates":[[-75.566092427557294,5.048442037563926],[-75.565427738501739,5.048016420604002],[-75.564937280093716,5.047648034031917],[-75.56416547973339,5.047195540346915]]}},
{"type":"Feature","properties":{"ESRI_OID":6955,"gid":6132,"objectid":5902,"id_via":5902,"coddep":"17","codvia":5902,"nombre":"Sendero","tipo":"V3","estado":null,"condicion":null,"length":1001.5784251599999,"shape_leng":1001.5784251599999},"geometry":{"type":"LineString","coordinates":[[-75.566933344324624,5.054991819438587],[-75.566932382402257,5.055064141278422],[-75.567602845209237,5.056287516673735],[-75.567786844744901,5.056921020883515],[-75.567788862671208,5.057064525461398],[-75.567720778961302,5.057351700182152],[-75.56770567613701,5.057646663236997],[-75.56773804732795,5.057758458303423],[-75.56790426996038,5.058008935253413],[-75.567919957517304,5.058216818067546],[-75.567789707639818,5.058421646024034],[-75.567650897786962,5.058579033892451],[-75.567300424405033,5.058819397250641],[-75.567004081861242,5.059077716152333],[-75.566904621931315,5.059195463832735],[-75.566790076991722,5.059616084578367],[-75.566778500179254,5.059727980576781],[-75.56667649635358,5.059965513490899],[-75.566545739127818,5.06019520244277],[-75.566503952186352,5.060648426072653],[-75.566443353706163,5.060759304606267],[-75.566165678290048,5.061050350458944],[-75.566142974498817,5.06122442171307],[-75.566180874438899,5.061289874411165],[-75.566484962265889,5.061462065566092],[-75.56653651118765,5.061582856614834],[-75.566558944253387,5.062524090320417],[-75.566590864992776,5.062931944932221]]}}
]
}
