{"type":"FeatureCollection","features":[{"type":"Feature","properties":{"highway":"secondary","oneway":"no","surface":"paved"},"geometry":{"type":"LineString","coordinates":[[-75.6413302,4.9897194],[-75.641431,4.989702],[-75.641491,4.989694],[-75.641593,4.989708],[-75.641717,4.989767],[-75.642013,4.990067],[-75.642138,4.990166],[-75.642563,4.990422],[-75.6430358,4.9906126],[-75.6434061,4.990688],[-75.6435779,4.990734],[-75.6437266,4.9908073],[-75.6438495,4.9909375],[-75.6439046,4.9911433],[-75.643939,4.991313],[-75.643981,4.991419],[-75.644018,4.991465],[-75.644083,4.9915],[-75.644177,4.9915],[-75.64428,4.991456],[-75.644452,4.991214],[-75.644535,4.991128],[-75.644691,4.991056],[-75.644945,4.991103],[-75.645241,4.991222],[-75.645414,4.991312],[-75.645606,4.991458],[-75.645797,4.991695],[-75.646102,4.992217],[-75.646316,4.992512],[-75.647298,4.993489],[-75.647463,4.9937],[-75.647562,4.993896],[-75.647588,4.994034],[-75.64759,4.994214],[-75.647515,4.994642],[-75.64741,4.995077],[-75.647418,4.995215],[-75.6474994,4.9956159],[-75.647519,4.995793],[-75.647563,4.995853],[-75.647617,4.995879],[-75.647733,4.995884],[-75.647799,4.995861],[-75.64787,4.995785],[-75.64793,4.995654],[-75.648131,4.9953],[-75.64827,4.995149],[-75.6493006,4.9941759],[-75.6494006,4.9940557],[-75.6494439,4.9939416],[-75.6494706,4.9937686],[-75.6493699,4.993358],[-75.6493662,4.9931726],[-75.6493937,4.9930126],[-75.649442,4.992922],[-75.64953,4.992797],[-75.649708,4.992596],[-75.6506174,4.9916162],[-75.650996,4.991221],[-75.651119,4.991106],[-75.65124,4.991015],[-75.651333,4.990965],[-75.651904,4.990846],[-75.652055,4.99075],[-75.652149,4.990668],[-75.652265,4.990499],[-75.652289,4.990424],[-75.652284,4.990091],[-75.652328,4.989966],[-75.652365,4.989905],[-75.652447,4.989823],[-75.652646,4.989687],[-75.652833,4.989584],[-75.653022,4.989507],[-75.653133,4.989482],[-75.653406,4.989449],[-75.653942,4.989423],[-75.654185,4.98938],[-75.654325,4.989328],[-75.654438,4.989257],[-75.6545649,4.9891546],[-75.6546324,4.989095],[-75.654824,4.988912],[-75.654951,4.98874],[-75.655018,4.988606],[-75.655168,4.988209],[-75.655271,4.987984],[-75.65548,4.9876487],[-75.6555196,4.9875851],[-75.655836,4.987234],[-75.655883,4.98714],[-75.655925,4.987004],[-75.655941,4.986918],[-75.655924,4.986724],[-75.655937,4.986619],[-75.656001,4.98641],[-75.656096,4.986294],[-75.656782,4.985738],[-75.657476,4.985318],[-75.657711,4.985158],[-75.657795,4.985079],[-75.6580156,4.9848289],[-75.658869,4.983662],[-75.659048,4.983438],[-75.659223,4.983275],[-75.659312,4.983215],[-75.659402,4.983178],[-75.659581,4.983129],[-75.66016,4.983086],[-75.660373,4.983022],[-75.660478,4.982943],[-75.660657,4.982768],[-75.660781,4.98268],[-75.661006,4.982572],[-75.661306,4.982464],[-75.661523,4.982361],[-75.661597,4.98231],[-75.661697,4.982208],[-75.661836,4.981993],[-75.66187,4.981894],[-75.661888,4.981781],[-75.661861,4.981644],[-75.661723,4.981311],[-75.661699,4.981164],[-75.661718,4.981051],[-75.6617697,4.9808943],[-75.6618997,4.9807303],[-75.66251,4.980082],[-75.662574,4.979977],[-75.662621,4.979836],[-75.6626822,4.9795745],[-75.662711,4.979407],[-75.662749,4.979318],[-75.662806,4.979239],[-75.662858,4.979191],[-75.663301,4.978917],[-75.66345,4.978803],[-75.6637772,4.9786128],[-75.664157,4.978392],[-75.66422,4.978324],[-75.664257,4.978245],[-75.664319,4.978012],[-75.664404,4.977868],[-75.664572,4.977725],[-75.66468,4.977674],[-75.664836,4.977633],[-75.664985,4.977612],[-75.665328,4.977596],[-75.66544,4.977572],[-75.66575,4.977416],[-75.665914,4.977294],[-75.666015,4.97724],[-75.666267,4.977168],[-75.666439,4.977153],[-75.666734,4.977201],[-75.666929,4.977218],[-75.66707,4.977211],[-75.667302,4.97715],[-75.6674123,4.9771146],[-75.6675652,4.9771095],[-75.6677046,4.9771709],[-75.6678269,4.9772354],[-75.6680271,4.977324],[-75.6681598,4.9773803],[-75.6682834,4.9774143],[-75.668362,4.977399],[-75.6684475,4.9773714],[-75.6685002,4.977293],[-75.6685495,4.9771015],[-75.6685727,4.9769971],[-75.6686136,4.9769117],[-75.6686704,4.9768521],[-75.668949,4.97674],[-75.669075,4.976668],[-75.669538,4.976467],[-75.66966,4.976447],[-75.669937,4.976439],[-75.670082,4.976398],[-75.670602,4.976158],[-75.670731,4.976135],[-75.670986,4.97615],[-75.671111,4.976114],[-75.6712157,4.97607],[-75.6713759,4.9758983],[-75.6715149,4.9758433],[-75.6716412,4.9758409],[-75.6718129,4.9758802],[-75.671964,4.9759444],[-75.6720751,4.9759952],[-75.6723246,4.9761499],[-75.6724895,4.9762206],[-75.6726254,4.976258],[-75.6730187,4.9762506],[-75.6731415,4.9762669],[-75.6733078,4.9763265],[-75.6734746,4.9764502],[-75.6735941,4.9765063],[-75.6737051,4.976521],[-75.673872,4.976516],[-75.67403,4.976509],[-75.674135,4.976528],[-75.6748609,4.9767524],[-75.6753904,4.9769196],[-75.676075,4.977289],[-75.6762106,4.977313]]}},{"type":"Feature","properties":{"highway":"residential"},"geometry":{"type":"LineString","coordinates":[[-75.6626822,4.9795745],[-75.6624207,4.9795464],[-75.662355,4.9795531],[-75.6623027,4.9795852],[-75.6619003,4.9799833],[-75.6615154,4.9803601]]}}]}