{"type":"FeatureCollection","features":[{"type":"Feature","properties":{"name":"Río Campoalegre","source":"Landsat;OpenCycleMap","waterway":"river"},"geometry":{"type":"LineString","coordinates":[[-75.6400115,4.9751517],[-75.639803,4.9752854],[-75.6395687,4.9755114],[-75.6394789,4.9756915],[-75.6395289,4.9767538],[-75.6401968,4.9774272],[-75.6411713,4.9785503],[-75.640946,4.9794975],[-75.6405491,4.9801241],[-75.6397285,4.9815628],[-75.639538,4.9824552],[-75.6397216,4.9845627],[-75.6395137,4.9855456],[-75.639192,4.9862369],[-75.6391563,4.9868749],[-75.6400068,4.9877478],[-75.6407818,4.988887],[-75.6411164,4.9894404],[-75.6416381,4.990253],[-75.6422805,4.9916114],[-75.6432441,4.9926552],[-75.6440532,4.9937313],[-75.6451659,4.9952382],[-75.6451646,4.9966224],[-75.6443033,4.9983167],[-75.6441825,4.9988109],[-75.6440659,4.9993547],[-75.6444301,4.9998824],[-75.6452261,4.9998109],[-75.6458836,4.9993585],[-75.6483624,5.0007043],[-75.6493495,5.0005556],[-75.6499497,4.9999152],[-75.6508372,4.9996417],[-75.6515601,5.0002658],[-75.6520174,5.0011594],[-75.6523925,5.0012473],[-75.6527513,5.0007844],[-75.6540898,5.00093],[-75.6555095,5.0006301],[-75.6586019,5.0007121],[-75.6595839,5.0015216],[-75.6605333,5.0027036],[-75.6618075,5.0028499],[-75.6630066,5.0024457],[-75.6643195,5.0029405],[-75.6654541,5.0039397],[-75.6663665,5.0040598],[-75.6667666,5.0038236],[-75.6673389,5.0035574],[-75.6682595,5.0039614],[-75.6686678,5.0032396],[-75.6687359,5.0025317],[-75.6681602,5.0019428],[-75.6680072,5.001354],[-75.6685775,5.0005174],[-75.6689038,4.9998104],[-75.6685988,4.9979868],[-75.6688182,4.9964831],[-75.6688116,4.9959852],[-75.6685082,4.995702],[-75.6681112,4.9952364],[-75.6679826,4.9948924],[-75.668045,4.9944118],[-75.6683512,4.9941499],[-75.6693378,4.9940433],[-75.670227,4.9956978],[-75.6707306,4.9957766],[-75.6713602,4.9953693],[-75.6721748,4.995695],[-75.6727345,4.9957242],[-75.6732861,4.9954983],[-75.6748598,4.9944775],[-75.6757416,4.9939108],[-75.67615,4.9938259],[-75.6770462,4.9942352],[-75.6774961,4.9941615],[-75.6778911,4.9947271],[-75.6782616,4.9959327],[-75.6778861,4.9968349],[-75.6774211,4.9975831],[-75.6776625,4.9982541],[-75.6782819,4.9988482],[-75.6793547,5.0001359],[-75.6799884,5.0013266],[-75.6803475,5.0016497],[-75.6809008,5.0018338],[-75.6813727,5.0017668],[-75.6819036,5.0017281],[-75.68228,5.0020134],[-75.6823815,5.0029312],[-75.6818651,5.0035898],[-75.6824306,5.0040116],[-75.6832554,5.0041571],[-75.6845214,5.0047508],[-75.6857118,5.0051525],[-75.6864135,5.0061643],[-75.686689,5.0064918],[-75.6872625,5.0064341],[-75.6876141,5.0059466],[-75.6882856,5.0056942],[-75.6890433,5.0058961],[-75.6896701,5.0064355],[-75.6900505,5.0074659],[-75.6902136,5.0091921],[-75.6900439,5.0107832],[-75.6898948,5.0118704],[-75.6899822,5.0125987],[-75.690594,5.0133963],[-75.691785,5.0141816],[-75.6917659,5.016151],[-75.692222,5.0169406],[-75.6929492,5.0171877],[-75.6936017,5.0163928],[-75.6956164,5.0155678],[-75.6960435,5.0158021],[-75.6961716,5.0165222],[-75.6961291,5.0175343],[-75.6967539,5.0176649],[-75.6971296,5.0172507],[-75.6976028,5.0171442],[-75.6978671,5.0190639],[-75.698574,5.0194681],[-75.6992158,5.0202935],[-75.6986013,5.0215584],[-75.6988057,5.0224942],[-75.69965,5.0228315],[-75.7010147,5.0229582],[-75.7016938,5.0248514],[-75.7029259,5.0269714],[-75.703826,5.0271744],[-75.7052355,5.0268305],[-75.7061029,5.0268651],[-75.7068239,5.0273532],[-75.706677,5.0282673],[-75.7063999,5.028817],[-75.7069386,5.0291541],[-75.7076399,5.0293292],[-75.7081373,5.0298259],[-75.7084558,5.0306628],[-75.7086293,5.03171],[-75.709811,5.0319957],[-75.7102176,5.033555],[-75.7099899,5.0349685],[-75.7099506,5.0358288],[-75.7104316,5.0360736],[-75.7117774,5.0372353],[-75.7120495,5.0385066],[-75.7118765,5.0390936],[-75.7114759,5.0393243],[-75.7106763,5.0400272],[-75.7099743,5.0408274],[-75.7097037,5.0420545],[-75.7103815,5.0437046],[-75.7105439,5.0451534],[-75.7100152,5.0456789],[-75.7092968,5.0460047],[-75.7094436,5.0471423],[-75.7096801,5.0476428],[-75.7101769,5.0482729],[-75.7093319,5.0495676],[-75.7080967,5.0505546],[-75.7083822,5.051514],[-75.7076525,5.0530498],[-75.7071749,5.054213],[-75.7092443,5.0579811],[-75.7091953,5.0585975],[-75.7098765,5.0600915],[-75.7104676,5.0609509],[-75.7106493,5.061818],[-75.7107009,5.0627823],[-75.7111732,5.0636473],[-75.7116292,5.0639372],[-75.7121775,5.0644823],[-75.7119045,5.0654752],[-75.7116831,5.0666],[-75.7111772,5.0677329],[-75.7110082,5.0687397],[-75.711197,5.0697465],[-75.7106927,5.0705308],[-75.7102548,5.0711523],[-75.709768,5.0716848],[-75.7094926,5.0727485],[-75.7101205,5.0746933],[-75.7097303,5.0755142],[-75.7096945,5.0765946],[-75.7098637,5.0769484],[-75.7099088,5.0770147],[-75.7099904,5.0771353],[-75.7101935,5.0776554]]}}]}